URL,名称,住所,最寄駅,施工年月,市区,lat,lng
https://db.self-in.com/mansion/1632214.html,アイランドシティ　オーシャン＆フォレストタワーレジデンス,福岡県福岡市東区香椎照葉6丁目,['西鉄バス「照葉北小学校前」バス停より 徒歩1分'],2022-11,福岡市東区,33.6689177,130.4172468
https://db.self-in.com/mansion/1426398.html,エイリックスタイル 箱崎駅南フォリア,福岡県福岡市東区郷口町10番19号,['箱崎駅より 徒歩6分'],2022-11,福岡市東区,33.6155005,130.4291887
https://db.self-in.com/mansion/1528998.html,アクタス福岡県庁前グランネクスト,福岡県福岡市東区馬出5丁目12番5号,"['馬出九大病院前駅より 徒歩5分', '箱崎宮前駅より 徒歩6分', '吉塚駅より 徒歩12分']",2022-9,福岡市東区,33.6125913,130.4210233
https://db.self-in.com/mansion/1421953.html,ファーネスト千早駅南ルクシア,福岡県福岡市東区若宮5丁目3番52号,['西鉄バス「若宮田（ハローデイ前）」バス停より 徒歩1分'],2022-7,福岡市東区,33.6449774,130.4435655
https://db.self-in.com/mansion/1415725.html,MJRザ・ガーデン香椎,福岡県福岡市東区香椎浜4丁目5番1号,['千早駅より 徒歩16分'],2022-2,福岡市東区,33.6559378,130.4324944
https://db.self-in.com/mansion/1434167.html,照葉ザ・タワー,福岡県福岡市東区香椎照葉7丁目27番11号,['西鉄バス「照葉北小学校前」バス停より 徒歩4分'],2022-1,福岡市東区,33.67259780000001,130.4197946
https://db.self-in.com/mansion/1420174.html,アルファスマート九産大前駅,福岡県福岡市東区唐原4丁目,"['九産大前駅より 徒歩7分', '唐の原駅より 徒歩8分', '西鉄バス「大名」バス停より 徒歩4分']",2021-10,福岡市東区,33.6789626,130.4408098
https://db.self-in.com/mansion/1525325.html,サヴォイラコートワジー,福岡県福岡市東区馬出1丁目3番11号,"['吉塚駅より 徒歩4分', '馬出九大病院前駅より 徒歩7分']",2021-9,福岡市東区,33.6082346,130.4224807
https://db.self-in.com/mansion/1399785.html,サンパーク箱崎東グラッセ,福岡県福岡市東区原田2丁目18番23号,"['箱崎駅より 徒歩10分', '西鉄バス「原田1丁目」バス停より 徒歩5分']",2021-9,福岡市東区,33.6216785,130.4339051
https://db.self-in.com/mansion/1423251.html,サンパーク箱崎駅前グラッセ,福岡県福岡市東区箱崎1丁目36番26号,"['箱崎駅より 徒歩5分', '箱崎宮前駅より 徒歩5分']",2021-3,福岡市東区,33.6179024,130.4231774
https://db.self-in.com/mansion/1423122.html,サンパーク香椎駅前グラッセ,福岡県福岡市東区香椎駅前3丁目33番18号,['香椎駅より 徒歩6分'],2021-2,福岡市東区,33.6637115,130.4435158
https://db.self-in.com/mansion/1423010.html,モントーレ香椎浜サーフタワーセンターコート,福岡県福岡市東区香椎浜3丁目3番5号,"['西鉄バス「香椎浜北公園」バス停より 徒歩2分', '西鉄香椎駅より 徒歩17分']",2020-12,福岡市東区,33.6573221,130.4280941
https://db.self-in.com/mansion/1423028.html,ルグラン福岡東,福岡県福岡市東区多の津5丁目25番12号,['西鉄「流通センター公園前」バス停より 徒歩3分'],2020-12,福岡市東区,33.6237798,130.4503859
https://db.self-in.com/mansion/1423036.html,グランフォーレ千早マークスクエア　イーストウイング,福岡県福岡市東区千早4丁目14番26号,['西鉄千早駅より 徒歩4分'],2020-11,福岡市東区,33.6486585,130.4374726
https://db.self-in.com/mansion/1422866.html,フォレストプレイス香椎照葉ザテラス,福岡県福岡市東区香椎照葉6丁目27番31号,"['香椎花園前駅より 徒歩30分', '西鉄バス「照葉小中学校北口」バス停より 徒歩5分']",2020-8,福岡市東区,33.6689177,130.4172468
https://db.self-in.com/mansion/1412354.html,MJR千早ブランシエラ,福岡県福岡市東区千早5丁目11番26号,['香椎宮前駅より 徒歩1分'],2020-6,福岡市東区,33.65489790000001,130.441899
https://db.self-in.com/mansion/1430806.html,アルファシオフリード,福岡県福岡市東区東浜1丁目14番56号,"['箱崎宮前駅より 徒歩14分', '馬出九大病院前駅より 徒歩17分', '吉塚駅より 徒歩22分']",2020-6,福岡市東区,33.6127167,130.4119666
https://db.self-in.com/mansion/1384085.html,センターマークスレジデンス,福岡県福岡市東区香椎照葉5丁目1番12号,['西鉄バス「香椎照葉五丁目」バス停より 徒歩4分'],2020-6,福岡市東区,33.6638544,130.4164474
https://db.self-in.com/mansion/1412338.html,アーバンパレス香椎照葉,福岡県福岡市東区香椎照葉3丁目1番,['西鉄バス「アイランドシティ中央公園前」バス停より 徒歩2分'],2020-3,福岡市東区,33.6612311,130.4226607
https://db.self-in.com/mansion/1412498.html,グランフォーレ千早プレミア,福岡県福岡市東区千早5丁目32番10号,['香椎宮前駅より 徒歩1分'],2019-11,福岡市東区,33.6544496,130.4421396
https://db.self-in.com/mansion/1632748.html,エンクレスト香椎セピア通り,福岡県福岡市東区香椎駅前2丁目15番45号,"['西鉄香椎駅より 徒歩3分', '香椎駅より 徒歩8分', '香椎宮前駅より 徒歩10分', '西鉄千早駅より 徒歩18分', '千早駅より 徒歩19分', '香椎花園前駅より 徒歩19分']",2019-10,福岡市東区,33.6600731,130.4393772
https://db.self-in.com/mansion/1399065.html,アクタス福岡県庁前グラシア,福岡県福岡市東区馬出5丁目27番27号,"['箱崎宮前駅より 徒歩3分', '馬出九大病院前駅より 徒歩4分', '吉塚駅より 徒歩10分', '西鉄バス「馬出通り」バス停より 徒歩1分']",2019-7,福岡市東区,33.6129078,130.4207898
https://db.self-in.com/mansion/778782.html,パークフロント香椎照葉イースト,福岡県福岡市東区香椎照葉4丁目4番20号,"['香椎花園前駅より 徒歩27分', '照葉ガーデンスクエアバス停より 徒歩4分']",2019-7,福岡市東区,33.6654496,130.4187197
https://db.self-in.com/mansion/778545.html,ファーネスト箱崎九大前レジスタ,福岡県福岡市東区箱崎3丁目26番10号,"['箱崎九大前駅より 徒歩1分', '箱崎駅より 徒歩10分']",2019-6,福岡市東区,33.6218263,130.4214665
https://db.self-in.com/mansion/773077.html,アルファスマート松島,福岡県福岡市東区松島1丁目10番10号,"['箱崎駅より 徒歩21分', '西鉄バス「松島一丁目」バス停より 徒歩7分']",2019-3,福岡市東区,33.6231893,130.4340056
https://db.self-in.com/mansion/778783.html,パークフロント香椎照葉,福岡県福岡市東区香椎照葉4丁目4番,"['香椎花園前駅より 徒歩27分', '照葉ガーデンスクエアバス停より 徒歩4分']",2019-2,福岡市東区,33.665909,130.4182022
https://db.self-in.com/mansion/1412253.html,センターマークスタワー,福岡県福岡市東区香椎照葉5丁目1番12号,"['西鉄バス「こども病院」バス停より 徒歩5分', '千早駅より バス19分']",2019-2,福岡市東区,33.6638544,130.4164474
https://db.self-in.com/mansion/1398246.html,サヴォイ ラルカンジュ,福岡県福岡市東区馬出1丁目24番35号,"['吉塚駅より 徒歩7分', '馬出九大病院前駅より 徒歩7分', '吉塚営業所バス停より 徒歩2分', '巴町バス停より 徒歩2分']",2019-1,福岡市東区,33.6105383,130.4236559
https://db.self-in.com/mansion/765526.html,モントーレ香椎浜サーフタワーイーストウイング,福岡県福岡市東区香椎浜3丁目3番,['西鉄バス「香椎浜中央」バス停より 徒歩4分'],2018-11,福岡市東区,33.6582259,130.4280742
https://db.self-in.com/mansion/1399462.html,ラメゾンドサヴォイ,福岡県福岡市東区馬出2丁目19番13号,"['西鉄バス・JR九州バス「馬出」バス停より 徒歩1分', '西鉄バス「馬出通り」バス停より 徒歩3分', '馬出九大病院前駅より 徒歩3分', '吉塚駅より 徒歩9分']",2018-10,福岡市東区,33.6113552,130.4206903
https://db.self-in.com/mansion/769578.html,サンパーク千早グラッセ,福岡県福岡市東区千早1丁目5番15号,"['名島駅より 徒歩11分', '西鉄「城浜団地」バス停より 徒歩4分']",2018-9,福岡市東区,33.6478885,130.4285925
https://db.self-in.com/mansion/760784.html,照葉テラス　パークカーサ０３,福岡県福岡市東区香椎照葉2丁目1番,['香椎花園前駅より 徒歩19分'],2018-2,福岡市東区,33.6658711,130.4231384
https://db.self-in.com/mansion/757081.html,グランドメゾン照葉テラスパークカーサ０２,福岡県福岡市東区香椎照葉2丁目1番2号,['香椎花園前駅より 徒歩19分'],2017-11,福岡市東区,33.66592869999999,130.4229617
https://db.self-in.com/mansion/748658.html,エイルマンション千早駅前,福岡県福岡市東区水谷2丁目55番1号,"['千早駅より 徒歩3分', '西鉄バス「水谷」バス停より 徒歩3分']",2017-11,福岡市東区,33.64963669999999,130.441833
https://db.self-in.com/mansion/771321.html,プレミスト千早中央公園,福岡県福岡市東区千早4丁目14番1号,"['千早駅より 徒歩5分', '西鉄千早駅より 徒歩5分']",2017-7,福岡市東区,33.6488795,130.4368405
https://db.self-in.com/mansion/757055.html,サンリヤン箱崎九大前ステーションレジデンス,福岡県福岡市東区箱崎3丁目25番16号,['箱崎九大前駅より 徒歩1分'],2017-6,福岡市東区,33.6218458,130.4210582
https://db.self-in.com/mansion/1399066.html,サヴォイ箱崎セントリシティ,福岡県福岡市東区箱崎1丁目12番20号,"['箱崎駅より 徒歩3分', '西鉄バス「箱崎駅西口」バス停より 徒歩3分']",2017-3,福岡市東区,33.6165638,130.4255616
https://db.self-in.com/mansion/1504050.html,グランフォーレ箱崎プレミア,福岡県福岡市東区箱崎1丁目27番21号,"['箱崎駅より 徒歩5分', '箱崎宮前駅より 徒歩7分', '箱崎九大前駅より 徒歩11分']",2017-3,福岡市東区,33.6172474,130.4237306
https://db.self-in.com/mansion/752387.html,グランドメゾン照葉テラスパークカーサ０１,福岡県福岡市東区香椎照葉2丁目1番1号,"['香椎花園前駅より 徒歩19分', '「照葉小中学校前」バス停より 徒歩1分']",2017-1,福岡市東区,33.6655249,130.4233207
https://db.self-in.com/mansion/781297.html,サヴォイ箱崎邸園,福岡県福岡市東区箱崎1丁目38番18号,"['箱崎宮前駅より 徒歩3分', '箱崎駅より 徒歩5分', '網屋町バス停より 徒歩2分']",2016-9,福岡市東区,33.6172838,130.4219327
https://db.self-in.com/mansion/749698.html,照葉テラスフォレストカーサ,福岡県福岡市東区香椎照葉2丁目6番1号,"['西鉄バス「照葉小中学校前」バス停より 徒歩1分', '香椎花園前駅より 徒歩19分']",2016-6,福岡市東区,33.6667548,130.4236661
https://db.self-in.com/mansion/1393967.html,ウインステージ箱崎２,福岡県福岡市東区箱崎2丁目6番15号,"['箱崎宮前駅より 徒歩4分', '箱崎駅より 徒歩7分']",2016-3,福岡市東区,33.6179011,130.4217253
https://db.self-in.com/mansion/707902.html,サンリヤン香椎駅前３番館,福岡県福岡市東区香椎駅前2丁目15番32号,"['西鉄香椎駅より 徒歩3分', '香椎駅より 徒歩7分']",2016-2,福岡市東区,33.6604524,130.4397488
https://db.self-in.com/mansion/763364.html,アイタワー,福岡県福岡市東区香椎照葉3丁目2番7号,"['香椎花園前駅より 徒歩28分', 'アイランドシティ中央公園前バス停より 徒歩4分', '千早駅より バス11分']",2016-2,福岡市東区,33.6620675,130.4225575
https://db.self-in.com/mansion/1344826.html,グランフォーレプライム箱崎,福岡県福岡市東区箱崎1丁目1番8号,"['箱崎駅より 徒歩8分', '箱崎宮前駅より 徒歩7分', '馬出九大病院前駅より 徒歩11分']",2015-12,福岡市東区,33.6134306,130.4249098
https://db.self-in.com/mansion/709790.html,モントーレ香椎浜サーフタワーウエストウイング,福岡県福岡市東区香椎浜3丁目3番4号,"['西鉄バス「香椎浜北公園前」バス停より 徒歩2分', '西鉄香椎駅より 徒歩20分', '香椎駅より 徒歩23分', '千早駅より 徒歩22分']",2015-12,福岡市東区,33.6577864,130.4272388
https://db.self-in.com/mansion/708156.html,オーヴィジョン照葉アクアテラス,福岡県福岡市東区香椎照葉3丁目1番1号,"['JR西鉄バス「アイランドシティ中央公園前」バス停バス停より 徒歩4分', '千早駅より バス10分']",2015-10,福岡市東区,33.6612207,130.4227802
https://db.self-in.com/mansion/708252.html,パークナード香椎,福岡県福岡市東区香椎駅前3丁目16番33号,"['香椎駅より 徒歩11分', '西鉄香椎駅より 徒歩8分', '西鉄「福岡女子大前」バス停バス停より 徒歩1分']",2015-7,福岡市東区,33.6649182,130.4410362
https://db.self-in.com/mansion/1333744.html,サンヒルズ吉塚,福岡県福岡市東区馬出1丁目32番14号,"['吉塚駅より 徒歩5分', '馬出九大病院前駅より 徒歩8分', '箱崎宮前駅より 徒歩13分']",2015-7,福岡市東区,33.6101756,130.4239652
https://db.self-in.com/mansion/707912.html,モントーレ香椎浜サーフコート,福岡県福岡市東区香椎浜3丁目3番7号,"['千早駅より 徒歩22分', '西鉄バス「留学生会館前」バス停バス停より 徒歩5分', '香椎駅より バス11分']",2015-5,福岡市東区,33.6581957,130.4295497
https://db.self-in.com/mansion/1409136.html,モントーレ香椎浜,福岡県福岡市東区香椎浜3丁目3番,"['千早駅より 徒歩22分', '西鉄バス「留学生会館前」バス停バス停より 徒歩5分', '香椎駅より バス11分']",2015-5,福岡市東区,33.6582259,130.4280742
https://db.self-in.com/mansion/708389.html,MJRシティ香椎サウス,福岡県福岡市東区香椎浜4丁目9番,['香椎駅より 徒歩12分'],2015-3,福岡市東区,33.6565601,130.4360343
https://db.self-in.com/mansion/707886.html,アンピール千早駅南,福岡県福岡市東区名島5丁目69番12号,"['千早駅より 徒歩5分', '西鉄千早駅より 徒歩5分']",2015-3,福岡市東区,33.6460497,130.4380896
https://db.self-in.com/mansion/763503.html,エイリックタウン箱崎公園ファミリアＷＥＳＴ,福岡県福岡市東区原田4丁目24番60号,['柚須駅より 徒歩20分'],2015-1,福岡市東区,33.6228228,130.4420429
https://db.self-in.com/mansion/599675.html,ザ・サンズ千早駅前,福岡県福岡市東区千早4丁目22番,['千早駅より 徒歩3分'],2015-1,福岡市東区,33.6496227,130.4373078
https://db.self-in.com/mansion/1442010.html,ラファセエスティーロ箱崎駅前,福岡県福岡市東区箱崎3丁目3番28号,"['箱崎駅より 徒歩3分', '箱崎九大前駅より 徒歩10分', '貝塚駅より 徒歩19分']",2014-9,福岡市東区,33.6205892,130.427318
https://db.self-in.com/mansion/1387287.html,MJR千早,福岡県福岡市東区千早4丁目25番17号,"['西鉄千早駅より 徒歩4分', '千早駅より 徒歩4分', '香椎宮前駅より 徒歩7分']",2014-7,福岡市東区,33.6514712,130.4402583
https://db.self-in.com/mansion/707780.html,セントラルパーク香椎照葉,福岡県福岡市東区香椎照葉4丁目2番1号,['香椎花園前駅より 徒歩21分'],2014-7,福岡市東区,33.6664653,130.4213471
https://db.self-in.com/mansion/763367.html,エイリックタウン箱崎公園ファミリアEAST,福岡県福岡市東区原田4丁目24番55号,['柚須駅より 徒歩21分'],2014-4,福岡市東区,33.6229112,130.4426432
https://db.self-in.com/mansion/1309469.html,ウインステージ箱崎,福岡県福岡市東区箱崎2丁目6番16号,['箱崎宮前駅より 徒歩4分'],2014-3,福岡市東区,33.6178018,130.4217452
https://db.self-in.com/mansion/763366.html,パーク・サンリヤン名島,福岡県福岡市東区名島5丁目66番8号,['名島駅より 徒歩4分'],2014-2,福岡市東区,33.6430293,130.4336343
https://db.self-in.com/mansion/777708.html,MJRシティ香椎,福岡県福岡市東区香椎浜4丁目9番1号,"['西鉄香椎駅より 徒歩10分', '香椎駅より 徒歩11分']",2014-2,福岡市東区,33.6568006,130.4366306
https://db.self-in.com/mansion/708012.html,アクロス松崎ファインテラス,福岡県福岡市東区松崎1丁目44番9号,"['西鉄バス「火の見下」バス停バス停より 徒歩2分', '名島駅より 徒歩16分', '千早駅より 徒歩19分', '西鉄千早駅より 徒歩19分']",2013-10,福岡市東区,33.6359477,130.4414252
https://db.self-in.com/mansion/1381530.html,グランディアソラーレ県庁前,福岡県福岡市東区馬出1丁目31番5号,"['吉塚駅より 徒歩6分', '馬出九大病院前駅より 徒歩7分', '箱崎宮前駅より 徒歩11分', '西鉄バス「吉塚営業所」バス停より 徒歩2分']",2013-9,福岡市東区,33.6106158,130.4242495
https://db.self-in.com/mansion/598807.html,プレミスト千早レジデンス,福岡県福岡市東区香椎団地1番30号,['千早駅より 徒歩8分'],2013-4,福岡市東区,33.6535207,130.4379048
https://db.self-in.com/mansion/1632220.html,レーベン千代 THE PARK FRONT,福岡県福岡市博多区千代4丁目29番5号,['千代県庁口駅より 徒歩3分'],2022-11,福岡市博多区,33.6049156,130.4152389
https://db.self-in.com/mansion/1414524.html,アルファステイツ東那珂,福岡県福岡市博多区東那珂1丁目400番6号,"['竹下駅より 徒歩15分', '西鉄バス「宮園」バス停より 徒歩6分']",2022-10,福岡市博多区,33.5759534,130.4408098
https://db.self-in.com/mansion/1631384.html,ブライトクロス博多,福岡県福岡市博多区那珂6丁目22番1号,['竹下駅より 徒歩8分'],2022-10,福岡市博多区,33.5648781,130.4376273
https://db.self-in.com/mansion/1419639.html,エイリックスタイル 吉塚アルクス,福岡県福岡市博多区吉塚5丁目12番41号,"['吉塚駅より 徒歩11分', '西鉄「東吉塚小学校前」バス停より 徒歩4分']",2022-9,福岡市博多区,33.6034338,130.4307217
https://db.self-in.com/mansion/1444250.html,デュレジア博多テラス,福岡県福岡市博多区美野島1丁目15番,['博多駅より 徒歩15分'],2022-6,福岡市博多区,33.5809353,130.4163709
https://db.self-in.com/mansion/1442315.html,アクタス博多グランミライ,福岡県福岡市博多区竹下4丁目5番4号,['竹下駅より 徒歩4分'],2022-5,福岡市博多区,33.5709778,130.4329874
https://db.self-in.com/mansion/1415502.html,ファーネスト博多レヴィア,福岡県福岡市博多区東那珂1丁目14番24号,['西鉄「宮園」バス停より 徒歩7分'],2022-5,福岡市博多区,33.574279,130.4398548
https://db.self-in.com/mansion/1438172.html,サングレート博多イーエックス,福岡県福岡市博多区板付5丁目12番26号,['西鉄バス「新屋バス停」バス停より 徒歩3分'],2022-3,福岡市博多区,33.5626062,130.4559311
https://db.self-in.com/mansion/1434153.html,アルファステイツ笹原駅南,福岡県福岡市博多区三筑2丁目17番,['笹原駅より 徒歩9分'],2022-1,福岡市博多区,33.5499002,130.4588738
https://db.self-in.com/mansion/1431713.html,グランフォーレ県庁前アネックス,福岡県福岡市博多区千代4丁目7番72号,['千代県庁口駅より 徒歩4分'],2021-11,福岡市博多区,33.605622,130.415481
https://db.self-in.com/mansion/1430814.html,アルファシオディフォンド,福岡県福岡市博多区石城町7番43号,"['呉服町駅より 徒歩13分', '中洲川端駅より 徒歩20分']",2021-5,福岡市博多区,33.6044706,130.4065766
https://db.self-in.com/mansion/1397085.html,ファーネスト博多ヴァリス,福岡県福岡市博多区東那珂3丁目5番,['西鉄「東那珂」バス停より 徒歩2分'],2021-5,福岡市博多区,33.5748709,130.4443117
https://db.self-in.com/mansion/1423260.html,ネストピア東比恵駅前II,福岡県福岡市博多区東比恵1丁目3番5号,"['東比恵駅より 徒歩4分', '博多駅より 徒歩9分']",2021-3,福岡市博多区,33.5903731,130.42825
https://db.self-in.com/mansion/1423282.html,ネストピア博多ガーデン,福岡県福岡市博多区千代1丁目33番10号,"['吉塚駅より 徒歩5分', '千代県庁口駅より 徒歩9分']",2021-3,福岡市博多区,33.6033033,130.4219953
https://db.self-in.com/mansion/1423105.html,アソシアテラス博多,福岡県福岡市博多区豊1丁目8番17号,['西鉄バス「東光二丁目」バス停より 徒歩6分'],2021-2,福岡市博多区,33.5956574,130.4311489
https://db.self-in.com/mansion/1422997.html,クリオ ラベルヴィ呉服町ウエスト,福岡県福岡市博多区下呉服町4番22,"['呉服町駅より 徒歩6分', '中洲川端駅より 徒歩11分', '西鉄バス「蔵本（博多小前）」バス停より 徒歩4分']",2020-11,福岡市博多区,33.6013603,130.406802
https://db.self-in.com/mansion/1424257.html,サヴォイラ・ピエルサフィール,福岡県福岡市博多区美野島2丁目31番21号,"['西鉄平尾駅より 徒歩15分', '渡辺通駅より 徒歩19分']",2020-7,福岡市博多区,33.5772953,130.4161321
https://db.self-in.com/mansion/1422838.html,クリオラベルヴィ呉服町イースト,福岡県福岡市博多区下呉服町6番3号,"['呉服町駅より 徒歩6分', '中洲川端駅より 徒歩11分', '西鉄バス「蔵本（博多小前）」バス停より 徒歩3分']",2020-7,福岡市博多区,33.6011314,130.4074147
https://db.self-in.com/mansion/1633548.html,LANDIC Y１３８,福岡県福岡市博多区吉塚1丁目38番29号,"['吉塚駅より 徒歩15分', '博多駅より 徒歩15分']",2020-6,福岡市博多区,33.5997299,130.4253675
https://db.self-in.com/mansion/1381529.html,サングレート博多ロイヤルレクシア,福岡県福岡市博多区那珂4丁目8番21号,"['竹下駅より 徒歩21分', '西鉄「板付団地第一」バス停より 徒歩3分']",2020-3,福岡市博多区,33.5687262,130.4480427
https://db.self-in.com/mansion/1422815.html,ネストピア東比恵駅前,福岡県福岡市博多区東比恵2丁目15番24号,['東比恵駅より 徒歩2分'],2020-3,福岡市博多区,33.59001629999999,130.4298448
https://db.self-in.com/mansion/1442002.html,エンクレスト呉服町,福岡県福岡市博多区下呉服町3番23号,"['呉服町駅より 徒歩5分', '西鉄バス「蔵本」バス停より 徒歩4分']",2020-1,福岡市博多区,33.6004153,130.4079105
https://db.self-in.com/mansion/774661.html,クリオラベルヴィ博多,福岡県福岡市博多区比恵町13番9号,"['東比恵駅より 徒歩4分', '博多駅より 徒歩12分', '博多駅より 徒歩13分']",2019-10,福岡市博多区,33.5863905,130.4309599
https://db.self-in.com/mansion/1390418.html,アルファシオ レヴァーク,福岡県福岡市博多区半道橋1丁目18番6号,['東比恵駅より 徒歩18分'],2019-10,福岡市博多区,33.5798736,130.4408987
https://db.self-in.com/mansion/1397162.html,エンクレストベイ天神EAST,福岡県福岡市博多区築港本町5番21号,"['中洲川端駅より 徒歩13分', '西鉄バス「築港本町」バス停より 徒歩2分']",2019-9,福岡市博多区,33.6003606,130.3998868
https://db.self-in.com/mansion/780219.html,プレサンスロジェ博多駅北,福岡県福岡市博多区吉塚3丁目16番12号,"['吉塚駅より 徒歩13分', '東比恵駅より 徒歩16分', '博多駅より 徒歩21分']",2019-9,福岡市博多区,33.5997838,130.4304723
https://db.self-in.com/mansion/778836.html,アルファステイツ笹原駅,福岡県福岡市博多区諸岡5丁目16番17号,"['笹原駅より 徒歩2分', '井尻駅より 徒歩10分', '「笹原」バス停より 徒歩1分']",2019-8,福岡市博多区,33.5532483,130.4504618
https://db.self-in.com/mansion/779988.html,ファーネスト春日原ルクシア,福岡県福岡市博多区西春町4丁目3番15号,"['春日原駅より 徒歩7分', '春日駅より 徒歩8分']",2019-8,福岡市博多区,33.5396777,130.4689171
https://db.self-in.com/mansion/1397990.html,エンクレスト天神LARK,福岡県福岡市博多区対馬小路2番5号,"['中洲川端駅より 徒歩8分', '西鉄バス「対馬小路」バス停より 徒歩3分']",2019-8,福岡市博多区,33.5987959,130.4023359
https://db.self-in.com/mansion/1412308.html,オーヴィジョン博多古門戸,福岡県福岡市博多区古門戸町8番12号,['西鉄バス「神屋町バス停」バス停より 徒歩7分'],2019-7,福岡市博多区,33.5984588,130.4025362
https://db.self-in.com/mansion/1399466.html,サヴォイラクアティック,福岡県福岡市博多区東比恵4丁目2番23号,"['西鉄バス「比恵」バス停より 徒歩2分', '東比恵駅より 徒歩2分', '博多駅より 徒歩15分']",2019-6,福岡市博多区,33.5878691,130.431114
https://db.self-in.com/mansion/1412316.html,サングレート博多ロイヤルマークス,福岡県福岡市博多区半道橋1丁目4番12号,"['東比恵駅より 徒歩12分', '西鉄「半道橋」バス停より 徒歩3分']",2019-6,福岡市博多区,33.5820549,130.437429
https://db.self-in.com/mansion/1412382.html,ネストピア博多グランドステージ2,福岡県福岡市博多区吉塚6丁目5番25号,['吉塚駅より 徒歩7分'],2019-3,福岡市博多区,33.6058408,130.4291887
https://db.self-in.com/mansion/769860.html,モントーレ東比恵クレア,福岡県福岡市博多区東比恵3丁目19番,['東比恵駅より 徒歩3分'],2019-3,福岡市博多区,33.5879035,130.4323728
https://db.self-in.com/mansion/784978.html,エンクレスト博多EAST PARK,福岡県福岡市博多区千代1丁目21番7号,"['千代県庁口駅より 徒歩4分', '吉塚駅より 徒歩12分']",2019-3,福岡市博多区,33.6023871,130.416585
https://db.self-in.com/mansion/1397929.html,エンクレストベイ天神東３,福岡県福岡市博多区築港本町5番8号,"['中洲川端駅より 徒歩12分', '築港本町（ベイサイド通り）バス停より 徒歩3分']",2019-3,福岡市博多区,33.6004762,130.4002452
https://db.self-in.com/mansion/770845.html,プレサンスロジェ呉服町,福岡県福岡市博多区下呉服町2番2号,"['呉服町駅より 徒歩5分', '中洲川端駅より 徒歩10分']",2019-2,福岡市博多区,33.6004779,130.4067863
https://db.self-in.com/mansion/771192.html,ジェイグラン南福岡サンリヤン,福岡県福岡市博多区三筑2丁目6番12号,"['笹原駅より 徒歩9分', '雑餉隈駅より 徒歩11分', '南福岡駅より 徒歩13分']",2019-2,福岡市博多区,33.5489182,130.4540319
https://db.self-in.com/mansion/1412261.html,サングレート博多ロイヤルプレイス,福岡県福岡市博多区諸岡1丁目20番15号,"['笹原駅より 徒歩17分', '井尻駅より 徒歩18分', '西鉄バス「諸岡」バス停より 徒歩4分']",2019-1,福岡市博多区,33.563114,130.4490169
https://db.self-in.com/mansion/1399470.html,サヴォイブロンズガーデニア,福岡県福岡市博多区吉塚6丁目6番1号,"['吉塚駅より 徒歩7分', '馬出九大病院前駅より 徒歩14分', '西鉄バス「道頓堀」バス停より 徒歩3分']",2019-1,福岡市博多区,33.6060073,130.430573
https://db.self-in.com/mansion/1479235.html,LANDIC S４１７３,福岡県福岡市博多区住吉4丁目17番3号,"['渡辺通駅より 徒歩10分', '薬院駅より 徒歩13分', '博多駅より 徒歩15分']",2018-12,福岡市博多区,33.5834504,130.4122012
https://db.self-in.com/mansion/771189.html,グランフォーレ南福岡レジデンス,福岡県福岡市博多区相生町2丁目3番22号,"['南福岡駅より 徒歩4分', '雑餉隈駅より 徒歩7分']",2018-12,福岡市博多区,33.5445475,130.4586939
https://db.self-in.com/mansion/1397928.html,エンクレスト博多GATE,福岡県福岡市博多区築港本町3番3号,"['中洲川端駅より 徒歩13分', '築港本町バス停より 徒歩2分', '呉服町駅より 徒歩10分']",2018-12,福岡市博多区,33.6019227,130.402296
https://db.self-in.com/mansion/1397926.html,エンクレスト空港通り,福岡県福岡市博多区東光2丁目22番16号,"['博多駅より 徒歩14分', '東比恵駅より 徒歩14分', '東光二丁目バス停より 徒歩2分']",2018-11,福岡市博多区,33.5963788,130.4291489
https://db.self-in.com/mansion/1399468.html,サヴォイル・カサブランカ,福岡県福岡市博多区吉塚6丁目6番20号,"['吉塚駅より 徒歩7分', '馬出九大病院前駅より 徒歩14分', '西鉄バス「道頓堀」バス停より 徒歩3分']",2018-11,福岡市博多区,33.6072449,130.4286387
https://db.self-in.com/mansion/765547.html,エンクレストパサージュ博多,福岡県福岡市博多区銀天町1丁目6番,"['南福岡駅より 徒歩4分', '雑餉隈駅より 徒歩4分']",2018-10,福岡市博多区,33.5445929,130.462275
https://db.self-in.com/mansion/1399063.html,アクタス博多パークシティ,福岡県福岡市博多区下呉服町9丁目8番,"['呉服町駅より 徒歩6分', '西鉄バス「蔵本（博多小前）」バス停より 徒歩5分']",2018-8,福岡市博多区,33.6015889,130.4094434
https://db.self-in.com/mansion/763322.html,サーパス博多サウスガーデン,福岡県福岡市博多区板付4丁目7番1号,['西鉄バス「板付農協前」バス停より 徒歩1分'],2018-8,福岡市博多区,33.5628501,130.4519318
https://db.self-in.com/mansion/1399068.html,サヴォイソリディティ,福岡県福岡市博多区博多駅南5丁目9番26号,"['竹下駅より 徒歩12分', '博多駅より 徒歩22分', '西鉄バス「榊田町」バス停より 徒歩1分', '西鉄バス「きよみ立体橋東」バス停より 徒歩3分']",2018-7,福岡市博多区,33.5762634,130.4280262
https://db.self-in.com/mansion/1390723.html,サヴォイ博多スーペリア,福岡県福岡市博多区住吉3丁目9番11号,"['渡辺通駅より 徒歩9分', '薬院駅より 徒歩10分', '祇園駅より 徒歩13分', '博多駅より 徒歩15分', '住吉バス停より 徒歩4分']",2018-5,福岡市博多区,33.5847315,130.4106703
https://db.self-in.com/mansion/758032.html,アルファライフ吉塚駅東２,福岡県福岡市博多区吉塚8丁目1番,['吉塚駅より 徒歩12分'],2018-3,福岡市博多区,33.6050506,130.4326912
https://db.self-in.com/mansion/757579.html,デュ・レジア 博多住吉,福岡県福岡市博多区住吉4丁目30番,['渡辺通駅より 徒歩9分'],2018-2,福岡市博多区,33.5820143,130.4111953
https://db.self-in.com/mansion/1397168.html,エンクレスト博多駅南STREET,福岡県福岡市博多区博多駅南2丁目9番13号,"['博多駅より 徒歩15分', '西鉄バス「駅南三丁目」バス停より 徒歩2分']",2018-2,福岡市博多区,33.5815527,130.4230986
https://db.self-in.com/mansion/1398458.html,エンクレスト博多 THE TIME,福岡県福岡市博多区博多駅南2丁目2番26号,"['西鉄バス「駅東三丁目」バス停より 徒歩1分', '博多駅より 徒歩9分', '東比恵駅より 徒歩10分']",2018-1,福岡市博多区,33.5848199,130.4252085
https://db.self-in.com/mansion/755996.html,クリオラベルヴィ呉服町,福岡県福岡市博多区下呉服町3番19号,"['呉服町駅より 徒歩5分', '西鉄バス「蔵本（博多小前）」バス停より 徒歩3分', '中洲川端駅より 徒歩11分']",2017-12,福岡市博多区,33.600658,130.4078127
https://db.self-in.com/mansion/1393959.html,アルファシオサウスフォンテ,福岡県福岡市博多区元町2丁目6番26号,['南福岡駅より 徒歩3分'],2017-10,福岡市博多区,33.5415583,130.4622653
https://db.self-in.com/mansion/1398699.html,エンクレスト大博通りAPEX,福岡県福岡市博多区奈良屋町14番13号,"['西鉄バス「神屋町」バス停より 徒歩1分', '呉服町駅より 徒歩6分', '博多駅より 徒歩21分']",2017-10,福岡市博多区,33.6005595,130.4052825
https://db.self-in.com/mansion/757531.html,ネオグレイス吉塚,福岡県福岡市博多区吉塚5丁目8番5号,"['吉塚駅より 徒歩9分', '西鉄「道頓堀」バス停より 徒歩1分']",2017-9,福岡市博多区,33.6052738,130.4307152
https://db.self-in.com/mansion/768853.html,サングレート博多ロイヤルレジデンス,福岡県福岡市博多区東比恵1丁目4番,"['東比恵駅より 徒歩2分', '博多駅より 徒歩8分', '西鉄バス「東比恵1丁目」バス停より 徒歩1分']",2017-6,福岡市博多区,33.5896143,130.4295071
https://db.self-in.com/mansion/772098.html,アルファシオディクレイヴ,福岡県福岡市博多区千代2丁目4番26号,"['千代県庁口駅より 徒歩5分', '祇園駅より 徒歩10分', '博多駅より 徒歩15分', '吉塚駅より 徒歩17分']",2017-3,福岡市博多区,33.5996575,130.4164527
https://db.self-in.com/mansion/1445686.html,ネストピア天神東３,福岡県福岡市博多区古門戸町3番10号,"['中洲川端駅より 徒歩5分', '呉服町駅より 徒歩10分']",2017-3,福岡市博多区,33.5971309,130.4042472
https://db.self-in.com/mansion/1398455.html,エンクレスト博多LEGEND,福岡県福岡市博多区住吉4丁目10番15号,"['博多駅より 徒歩15分', '西鉄バス「住吉」バス停より 徒歩2分']",2017-3,福岡市博多区,33.583579,130.4133684
https://db.self-in.com/mansion/1390883.html,アソシアグロッツォ博多サウスガーデン,福岡県福岡市博多区山王1丁目,['東比恵駅より 徒歩14分'],2017-2,福岡市博多区,33.5829674,130.4318952
https://db.self-in.com/mansion/1384859.html,アルファシオベイス博多,福岡県福岡市博多区千代3丁目3番22号,['千代県庁口駅より 徒歩2分'],2017-2,福岡市博多区,33.6017364,130.4126699
https://db.self-in.com/mansion/1397930.html,エンクレスト博多スタイル,福岡県福岡市博多区住吉3丁目8番30号,"['博多駅より 徒歩12分', '西鉄バス\u3000住吉通り「住吉」バス停より 徒歩2分']",2017-2,福岡市博多区,33.5850176,130.4117403
https://db.self-in.com/mansion/1398462.html,エンクレスト博多駅南CELES,福岡県福岡市博多区山王1丁目16番15号,['西鉄バス「山王一丁目」バス停より 徒歩3分'],2017-2,福岡市博多区,33.5801445,130.4329635
https://db.self-in.com/mansion/769832.html,ネストピア県庁口駅前,福岡県福岡市博多区千代3丁目5番36号,['千代県庁口駅より 徒歩2分'],2017-1,福岡市博多区,33.6018306,130.4131902
https://db.self-in.com/mansion/1605496.html,アソシアグロッツォ博多サザンテラス,福岡県福岡市博多区博多駅南3丁目3番30号,"['東比恵駅より 徒歩13分', '博多駅より 徒歩15分', '竹下駅より 徒歩25分']",2016-11,福岡市博多区,33.5821866,130.4269517
https://db.self-in.com/mansion/1398172.html,エンクレスト博多駅南ＳＨＡＲＥ,福岡県福岡市博多区博多駅南3丁目3番16号,"['東比恵駅より 徒歩15分', '博多駅より 徒歩19分', '瑞穂バス停より 徒歩4分']",2016-9,福岡市博多区,33.5819171,130.4271141
https://db.self-in.com/mansion/1493453.html,アソシアグロッツォ博多PLACE,福岡県福岡市博多区神屋町2番22号,"['呉服町駅より 徒歩8分', '中洲川端駅より 徒歩10分', '千代県庁口駅より 徒歩16分']",2016-8,福岡市博多区,33.6010839,130.4041425
https://db.self-in.com/mansion/780517.html,エンクレスト博多駅東2,福岡県福岡市博多区博多駅東3丁目12番27号,"['東比恵駅より 徒歩7分', '博多駅より 徒歩13分']",2016-8,福岡市博多区,33.5854384,130.4269995
https://db.self-in.com/mansion/709242.html,サングレート竹下ロイヤルステーション,福岡県福岡市博多区竹下5丁目16番25号,['竹下駅より 徒歩3分'],2016-7,福岡市博多区,33.5682013,130.4339973
https://db.self-in.com/mansion/752426.html,エンクレストベイサイド通り,福岡県福岡市博多区築港本町7番14号,"['中洲川端駅より 徒歩13分', '呉服町駅より 徒歩15分', '西鉄バス 築港本町(ベイサイド通り)バス停より 徒歩1分']",2016-6,福岡市博多区,33.601728,130.400545
https://db.self-in.com/mansion/747668.html,アメックス博多県庁前,福岡県福岡市博多区千代3丁目4番27号,"['千代県庁口駅より 徒歩2分', '千代町バス停より 徒歩2分']",2016-3,福岡市博多区,33.601849,130.4128121
https://db.self-in.com/mansion/1381099.html,エンクレスト博多駅前ART,福岡県福岡市博多区博多駅前4丁目7番3号,"['博多駅より 徒歩8分', '祇園駅より 徒歩16分', '駅前四丁目バス停より 徒歩3分']",2016-2,福岡市博多区,33.5852792,130.4170918
https://db.self-in.com/mansion/955661.html,エンクレストベイ天神東２,福岡県福岡市博多区築港本町5番10号,['天神駅より 徒歩10分'],2016-1,福岡市博多区,33.6003191,130.4000859
https://db.self-in.com/mansion/1442003.html,ネストピア博多グランドステージ,福岡県福岡市博多区吉塚5丁目11番33号,['吉塚駅より 徒歩8分'],2016-1,福岡市博多区,33.604065,130.4304027
https://db.self-in.com/mansion/768720.html,ラファセグランビア博多,福岡県福岡市博多区石城町16番28号,"['千代県庁口駅より 徒歩13分', '呉服町駅より 徒歩14分', '馬出九大病院前駅より 徒歩23分', '中洲川端駅より 徒歩24分']",2015-11,福岡市博多区,33.6066456,130.4065368
https://db.self-in.com/mansion/752937.html,サヴォイクラウドスケープ,福岡県福岡市博多区美野島2丁目1番43号,"['博多駅より 徒歩10分', '西鉄平尾駅より 徒歩20分', '竹下駅より 徒歩24分', '渡辺通駅より 徒歩24分', '美野島一丁目バス停より 徒歩1分']",2015-9,福岡市博多区,33.580812,130.4199701
https://db.self-in.com/mansion/954842.html,ザ・シダーハウスバイサヴォイ,福岡県福岡市博多区東光2丁目13番9号,"['東比恵駅より 徒歩9分', '東光二丁目バス停より 徒歩3分']",2015-9,福岡市博多区,33.5946464,130.428528
https://db.self-in.com/mansion/763371.html,ウインステージ大博通り,福岡県福岡市博多区大博町5番20号,['呉服町駅より 徒歩9分'],2015-9,福岡市博多区,33.60249940000001,130.4063899
https://db.self-in.com/mansion/708467.html,デュレジア博多,福岡県福岡市博多区半道橋1丁目6番21号,['西鉄バス「半道橋」バス停より 徒歩5分'],2015-8,福岡市博多区,33.5808841,130.4372858
https://db.self-in.com/mansion/707797.html,アルファライフ南福岡,福岡県福岡市博多区寿町3丁目3番13号,"['南福岡駅より 徒歩5分', '雑餉隈駅より 徒歩5分']",2015-8,福岡市博多区,33.5446005,130.46086
https://db.self-in.com/mansion/1331306.html,レジデンシャルヒルズ博多サウス,福岡県福岡市博多区美野島3丁目3番11号,"['竹下駅より 徒歩19分', '博多駅より 徒歩20分', '高宮駅より 徒歩20分']",2015-6,福岡市博多区,33.577194,130.4212951
https://db.self-in.com/mansion/708181.html,グランディアソラーレ吉塚,福岡県福岡市博多区吉塚7丁目8番3号,"['吉塚駅より 徒歩8分', '西鉄バス「道頓掘」バス停バス停より 徒歩7分']",2015-3,福岡市博多区,33.6093899,130.4306484
https://db.self-in.com/mansion/767197.html,ラファセアリービオ博多,福岡県福岡市博多区石城町1番3号,['呉服町駅より 徒歩11分'],2015-3,福岡市博多区,33.6028778,130.4036876
https://db.self-in.com/mansion/707845.html,サンメゾン南福岡エルド,福岡県福岡市博多区麦野6丁目23番27号,['雑餉隈駅より 徒歩6分'],2015-2,福岡市博多区,33.5492321,130.4664479
https://db.self-in.com/mansion/1319998.html,エンクレスト博多LIBERTY,福岡県福岡市博多区住吉5丁目31番3号,"['渡辺通駅より 徒歩12分', '薬院駅より 徒歩16分', '博多駅より 徒歩19分', '住吉バス停より 徒歩7分']",2015-2,福岡市博多区,33.58090230000001,130.4124345
https://db.self-in.com/mansion/951651.html,サヴォイ ザフォース フォー,福岡県福岡市博多区神屋町1番18号,"['呉服町駅より 徒歩9分', '中洲川端駅より 徒歩12分', '天神駅より 徒歩19分', '神屋町バス停より 徒歩1分']",2015-2,福岡市博多区,33.6013942,130.4045802
https://db.self-in.com/mansion/710027.html,エンクレスト博多プレミア,福岡県福岡市博多区住吉2丁目3番7号,['博多駅より 徒歩8分'],2015-2,福岡市博多区,33.588063,130.413256
https://db.self-in.com/mansion/1322411.html,アルファライフ吉塚駅東,福岡県福岡市博多区吉塚5丁目110番2号,"['吉塚駅より 徒歩7分', '馬出九大病院前駅より 徒歩19分', '箱崎駅より 徒歩23分']",2015-2,福岡市博多区,33.6038755,130.4293479
https://db.self-in.com/mansion/708304.html,エンクレスト南福岡奏の杜,福岡県福岡市博多区寿町3丁目5番45号,"['雑餉隈駅より 徒歩5分', '南福岡駅より 徒歩4分', '春日駅より 徒歩20分']",2015-2,福岡市博多区,33.5443392,130.4615008
https://db.self-in.com/mansion/708305.html,エグゼ博多コンドミニアム,福岡県福岡市博多区博多駅前1丁目8番7号,"['博多駅より 徒歩7分', '祇園駅より 徒歩2分']",2015-2,福岡市博多区,33.5939914,130.4168061
https://db.self-in.com/mansion/708329.html,アクセス筑紫通り,福岡県福岡市博多区板付7丁目9番33号,['西鉄バス「麦野1丁目」バス停より 徒歩2分'],2015-2,福岡市博多区,33.5550526,130.4552266
https://db.self-in.com/mansion/708074.html,アソシアビュー博多アドレス,福岡県福岡市博多区豊1丁目1番3号,"['博多駅より 徒歩13分', '西鉄バス「東光二丁目｣バス停バス停より 徒歩2分']",2015-2,福岡市博多区,33.5968394,130.4295258
https://db.self-in.com/mansion/708230.html,サングレート博多ロイヤルパーク２,福岡県福岡市博多区三筑2丁目2番22号,['雑餉隈駅より 徒歩9分'],2015-1,福岡市博多区,33.5504191,130.4562481
https://db.self-in.com/mansion/1322917.html,サヴォイ博多エレメンツ,福岡県福岡市博多区美野島2丁目30番16号,"['西鉄平尾駅より 徒歩11分', '薬院駅より 徒歩15分', '博多駅より 徒歩16分', '百年橋バス停より 徒歩2分']",2015-1,福岡市博多区,33.5774971,130.4152828
https://db.self-in.com/mansion/1350586.html,グランフォーレ博多駅東プレミア,福岡県福岡市博多区比恵町19番8号,"['東比恵駅より 徒歩7分', '博多駅より 徒歩13分']",2015-1,福岡市博多区,33.584858,130.4305022
https://db.self-in.com/mansion/708039.html,アプローズ那珂2,福岡県福岡市博多区那珂3丁目26番12号,['西鉄バス「那珂」バス停バス停より 徒歩2分'],2014-8,福岡市博多区,33.56807570000001,130.4417282
https://db.self-in.com/mansion/951359.html,ヴィラージュ県庁前1,福岡県福岡市博多区千代4丁目,[''],2014-6,福岡市博多区,33.6051928,130.4140618
https://db.self-in.com/mansion/1301336.html,ソシオスヒルズイン博多,福岡県福岡市博多区下呉服町6番9号,"['呉服町駅より 徒歩6分', '中洲川端駅より 徒歩13分', '天神駅より 徒歩21分']",2014-6,福岡市博多区,33.6018098,130.4069449
https://db.self-in.com/mansion/708306.html,エンクレストGRAN博多駅前,福岡県福岡市博多区博多駅前4丁目30番31号,"['博多駅より 徒歩8分', '西鉄「博多消防署前」バス停より 徒歩1分']",2014-6,福岡市博多区,33.5838068,130.4187997
https://db.self-in.com/mansion/951466.html,ヴィラージュ県庁前2,福岡県福岡市博多区千代4丁目,[''],2014-6,福岡市博多区,33.6051928,130.4140618
https://db.self-in.com/mansion/1308646.html,グランパーク県庁前,福岡県福岡市博多区千代1丁目16番15号,"['千代県庁口駅より 徒歩2分', '呉服町駅より 徒歩12分', '祇園駅より 徒歩17分']",2014-5,福岡市博多区,33.6017854,130.4149576
https://db.self-in.com/mansion/749310.html,ネストピア博多シティ,福岡県福岡市博多区博多駅南1丁目116番,"['博多駅より 徒歩5分', '東比恵駅より 徒歩14分', '祇園駅より 徒歩16分']",2014-3,福岡市博多区,33.5857963,130.4217054
https://db.self-in.com/mansion/707869.html,ヒューマインド南福岡かえで通り,福岡県福岡市博多区銀天町3丁目6番29号,['雑餉隈駅より 徒歩3分'],2014-2,福岡市博多区,33.545849,130.464306
https://db.self-in.com/mansion/707887.html,アンピール南福岡駅,福岡県福岡市博多区昭南町2丁目3番12号,"['雑餉隈駅より 徒歩15分', '南福岡駅より 徒歩6分']",2014-2,福岡市博多区,33.5386121,130.4629773
https://db.self-in.com/mansion/949323.html,ネストピア博多祇園,福岡県福岡市博多区店屋町2番26号,['呉服町駅より 徒歩2分'],2014-2,福岡市博多区,33.5959153,130.4106601
https://db.self-in.com/mansion/947376.html,ネストピア博多駅前II,福岡県福岡市博多区博多駅前2丁目13番3号,"['博多駅より 徒歩7分', '祇園駅より 徒歩7分', '中洲川端駅より 徒歩15分']",2014-1,福岡市博多区,33.5907603,130.4150839
https://db.self-in.com/mansion/1396990.html,エンクレスト博多MATE,福岡県福岡市博多区美野島3丁目16番16号,['博多駅より 徒歩17分'],2014-1,福岡市博多区,33.5779355,130.4186239
https://db.self-in.com/mansion/776245.html,LaFaseVERXEEDHAKATA,福岡県福岡市博多区博多駅前4丁目33番3号,"['博多駅より 徒歩14分', '東比恵駅より 徒歩16分', '渡辺通駅より 徒歩16分', '祇園駅より 徒歩21分']",2013-11,福岡市博多区,33.582577,130.4194164
https://db.self-in.com/mansion/763394.html,プレスタイル博多駅南２,福岡県福岡市博多区博多駅南2丁目4番36号,['博多駅より 徒歩10分'],2013-10,福岡市博多区,33.5845956,130.4248078
https://db.self-in.com/mansion/1316797.html,プレスタイル博多NORTH,福岡県福岡市博多区博多駅南2丁目4番34号,"['博多駅より 徒歩10分', '東比恵駅より 徒歩10分', '祇園駅より 徒歩19分']",2013-8,福岡市博多区,33.5844385,130.424801
https://db.self-in.com/mansion/948457.html,グランフォーレラグゼ博多,福岡県福岡市博多区奈良屋町12番14号,"['呉服町駅より 徒歩8分', '中洲川端駅より 徒歩13分']",2013-7,福岡市博多区,33.5998021,130.4044069
https://db.self-in.com/mansion/784927.html,アウルステージアン・シオ博多駅南,福岡県福岡市博多区博多駅南5丁目22番7号,['竹下駅より 徒歩12分'],2013-6,福岡市博多区,33.57578730000001,130.427716
https://db.self-in.com/mansion/783520.html,ラファセエクセレンシア呉服町,福岡県福岡市博多区上呉服町13番29号,"['呉服町駅より 徒歩5分', '千代県庁口駅より 徒歩8分']",2013-5,福岡市博多区,33.5994502,130.412748
https://db.self-in.com/mansion/599407.html,アルファライフ博多南,福岡県福岡市博多区竹下2丁目1番56号,['竹下駅より 徒歩9分'],2013-4,福岡市博多区,33.5738592,130.4295574
https://db.self-in.com/mansion/946996.html,サヴォイ リトリートハウス,福岡県福岡市博多区須崎町3番16号,"['中洲川端駅より 徒歩5分', '天神駅より 徒歩11分']",2013-2,福岡市博多区,33.59643320000001,130.4028535
https://db.self-in.com/mansion/721589.html,エンクレスト博多ハーモニー,福岡県福岡市博多区中洲5丁目3番20号,['中洲川端駅より 徒歩1分'],2013-2,福岡市博多区,33.5933297,130.4044662
https://db.self-in.com/mansion/1416778.html,プレサンスロジェ大濠公園,福岡県福岡市中央区港2丁目11番,['大濠公園駅より 徒歩7分'],2022-10,福岡市中央区,33.5942994,130.3794943
https://db.self-in.com/mansion/1409666.html,グランドメゾン赤坂JOHSEKI,福岡県福岡市中央区赤坂2丁目5番53号,"['西鉄バス「赤坂三丁目」バス停より 徒歩2分', '赤坂駅より 徒歩11分', '大濠公園駅より 徒歩20分']",2022-10,福岡市中央区,33.5838081,130.3854296
https://db.self-in.com/mansion/1420802.html,オープンレジデンシア薬院南,福岡県福岡市中央区平尾3丁目,"['薬院駅より 徒歩8分', '薬院大通駅より 徒歩8分']",2022-9,福岡市中央区,33.5757804,130.3995992
https://db.self-in.com/mansion/1421529.html,オープンレジデンシア鳥飼,福岡県福岡市中央区鳥飼1丁目,"['西新駅より 徒歩11分', '六本松駅より 徒歩14分']",2022-8,福岡市中央区,33.5818509,130.3697735
https://db.self-in.com/mansion/1412736.html,グランドメゾン薬院ザ・タワーレジデンス,福岡県福岡市中央区薬院3丁目8番,"['薬院大通駅より 徒歩5分', '西鉄バス「新川町」バス停より 徒歩1分']",2022-6,福岡市中央区,33.5784791,130.3994886
https://db.self-in.com/mansion/1440230.html,CLUB THE.平尾駅前,福岡県福岡市中央区平尾2丁目16番10号,['西鉄平尾駅より 徒歩3分'],2022-4,福岡市中央区,33.5736751,130.4037096
https://db.self-in.com/mansion/1435663.html,デュレジア薬院テラス,福岡県福岡市中央区高砂2丁目18番10号,"['薬院駅より 徒歩11分', '西鉄バス「高砂二丁目」バス停より 徒歩4分', '西鉄平尾駅より 徒歩9分']",2022-2,福岡市中央区,33.5776161,130.4081295
https://db.self-in.com/mansion/1433415.html,グランドメゾン浄水ガーデンシティセントラルフォレストI,福岡県福岡市中央区薬院4丁目14番1号,['薬院大通駅より 徒歩5分'],2021-12,福岡市中央区,33.5764639,130.3961013
https://db.self-in.com/mansion/1388357.html,オーヴィジョン六本松,福岡県福岡市中央区谷2丁目347番9号,"['六本松駅より 徒歩6分', '西鉄バス「六本松3丁目」バス停徒歩4分バス停より 徒歩4分']",2021-10,福岡市中央区,33.574344,130.3822031
https://db.self-in.com/mansion/1427676.html,オープンレジデンシア渡辺通,福岡県福岡市中央区清川1丁目2番,['渡辺通駅より 徒歩6分'],2021-9,福岡市中央区,33.5818016,130.4091249
https://db.self-in.com/mansion/1425825.html,デュオヴェール大濠公園CLASS,福岡県福岡市中央区大手門2丁目4番,"['大濠公園駅より 徒歩6分', '赤坂駅より 徒歩12分', '「大手門３丁目」バス停より 徒歩3分']",2021-8,福岡市中央区,33.5910861,130.3839558
https://db.self-in.com/mansion/1423321.html,グランドメゾン大濠公園ザ・タワーレジデンス,福岡県福岡市中央区荒戸2丁目4番45号,"['大濠公園駅より 徒歩6分', '西鉄バス「荒戸二丁目」バス停より 徒歩3分']",2021-5,福岡市中央区,33.5931644,130.3767854
https://db.self-in.com/mansion/1423208.html,MJR平尾駅前,福岡県福岡市中央区那の川2丁目11番1号,"['西鉄平尾駅より 徒歩2分', '西鉄「平尾駅」バス停より 徒歩3分']",2021-3,福岡市中央区,33.5742985,130.4071141
https://db.self-in.com/mansion/1423217.html,エイリックスタイル薬院南グランウィズ,福岡県福岡市中央区高砂2丁目20番2号,['渡辺通駅より 徒歩9分'],2021-3,福岡市中央区,33.5785526,130.4083086
https://db.self-in.com/mansion/1423249.html,アソシア小笹翠景,福岡県福岡市中央区小笹3丁目124番2号,['西鉄バス「小笹中央公園前」バス停より 徒歩2分'],2021-3,福岡市中央区,33.565315,130.3873017
https://db.self-in.com/mansion/1384498.html,クリオラベルヴィ赤坂,福岡県福岡市中央区大手門2丁目1番30号,"['赤坂駅より 徒歩7分', '大濠公園駅より 徒歩9分', '天神駅より 徒歩14分', '西鉄バス「平和台通り」バス停より 徒歩2分']",2021-1,福岡市中央区,33.5905337,130.3864554
https://db.self-in.com/mansion/1423073.html,エイリックスタイル小笹センターマーク,福岡県福岡市中央区小笹3丁目7番19号,['西鉄バス「小笹」バス停より 徒歩1分'],2021-1,福岡市中央区,33.5642523,130.3894525
https://db.self-in.com/mansion/1423016.html,ザ・パークハウス福岡タワーズEAST,福岡県福岡市中央区地行浜2丁目2番,['唐人町駅より 徒歩12分'],2020-12,福岡市中央区,33.5952262,130.3618045
https://db.self-in.com/mansion/1423042.html,グランアーキ大濠一丁目 ザ・レジデンス,福岡県福岡市中央区大濠1丁目6番33号,"['六本松駅より 徒歩9分', '唐人町駅より 徒歩13分', '大濠公園駅より 徒歩15分']",2020-12,福岡市中央区,33.5828044,130.3743665
https://db.self-in.com/mansion/1382944.html,プレサンスロジェ薬院二丁目,福岡県福岡市中央区薬院2丁目13番1号,"['薬院大通駅より 徒歩3分', '薬院駅より 徒歩9分', '天神南駅より 徒歩15分']",2020-11,福岡市中央区,33.5822773,130.3944708
https://db.self-in.com/mansion/1422946.html,デュレジア大濠,福岡県福岡市中央区黒門6番35号,"['唐人町駅より 徒歩2分', '西鉄バス「唐人町」バス停徒歩2分バス停より 徒歩2分']",2020-10,福岡市中央区,33.589554,130.3710485
https://db.self-in.com/mansion/1389980.html,グランドメゾン大濠ザ・アパートメント,福岡県福岡市中央区大濠1丁目8番31号,"['唐人町駅より 徒歩8分', '西鉄バス「大濠公園南」バス停より 徒歩3分']",2020-9,福岡市中央区,33.5840058,130.3739451
https://db.self-in.com/mansion/1422865.html,ブランシエラ赤坂はなみずき通り,福岡県福岡市中央区桜坂1丁目15番9号,"['桜坂駅より 徒歩5分', '赤坂駅より 徒歩13分', '西鉄バス「赤坂二丁目」バス停より 徒歩6分']",2020-8,福岡市中央区,33.5807692,130.3881381
https://db.self-in.com/mansion/1381883.html,グランドメゾン大濠公園２０２０,福岡県福岡市中央区荒戸3丁目1番5号,"['大濠公園駅より 徒歩5分', '唐人町駅より 徒歩5分', '西鉄「黒門」バス停より 徒歩1分']",2020-8,福岡市中央区,33.5905795,130.3745597
https://db.self-in.com/mansion/780443.html,ザ・パークハウス天神今泉,福岡県福岡市中央区今泉2丁目2番1号,"['薬院大通駅より 徒歩5分', '薬院駅より 徒歩6分', '西鉄福岡（天神）駅より 徒歩9分']",2020-7,福岡市中央区,33.5832041,130.3978957
https://db.self-in.com/mansion/1422832.html,インプレスト天神オークタワー,福岡県福岡市中央区長浜2丁目1番30号,"['赤坂駅より 徒歩8分', '天神駅より 徒歩11分', '西鉄福岡（天神）駅より 徒歩14分']",2020-7,福岡市中央区,33.59385049999999,130.3911452
https://db.self-in.com/mansion/1412416.html,ルサンク大濠公園,福岡県福岡市中央区大手門2丁目5番28号,"['大濠公園駅より 徒歩8分', '西鉄バス「すの子」バス停より 徒歩2分']",2020-6,福岡市中央区,33.5918498,130.3840155
https://db.self-in.com/mansion/1409845.html,CLUB THE．薬院ステーションタワー,福岡県福岡市中央区白金1丁目17番34号,['薬院駅より 徒歩2分'],2020-5,福岡市中央区,33.5806142,130.4021818
https://db.self-in.com/mansion/1412521.html,アルテマインド大濠公園,福岡県福岡市中央区鳥飼1丁目1番,['西鉄「草香江」バス停より 徒歩1分'],2020-4,福岡市中央区,33.5825688,130.3728015
https://db.self-in.com/mansion/1412431.html,ブラントン六本松,福岡県福岡市中央区草香江2丁目1番31号,"['六本松駅より 徒歩3分', '西鉄「六本松」バス停より 徒歩3分']",2020-3,福岡市中央区,33.5783524,130.3752915
https://db.self-in.com/mansion/1398165.html,エンクレスト天神WEST,福岡県福岡市中央区舞鶴2丁目8番19号,"['赤坂駅より 徒歩5分', '法務局前バス停より 徒歩3分']",2020-3,福岡市中央区,33.5913096,130.3916032
https://db.self-in.com/mansion/771145.html,フリーディア赤坂プレミアム,福岡県福岡市中央区舞鶴3丁目6番1号,['赤坂駅より 徒歩5分'],2020-2,福岡市中央区,33.5914289,130.3882178
https://db.self-in.com/mansion/783219.html,グランドメゾン平尾ザスタイル,福岡県福岡市中央区高砂2丁目10番9号,['西鉄平尾駅より 徒歩8分'],2020-1,福岡市中央区,33.5760527,130.4112749
https://db.self-in.com/mansion/1413144.html,ザ・パークハウス福岡タワーズ,福岡県福岡市中央区地行浜2丁目2番,['唐人町駅より 徒歩12分'],2019-12,福岡市中央区,33.5952262,130.3618045
https://db.self-in.com/mansion/1409671.html,ザ・パークハウス福岡タワーズWEST,福岡県福岡市中央区地行浜2丁目2番4号,['唐人町駅より 徒歩12分'],2019-12,福岡市中央区,33.5936408,130.363794
https://db.self-in.com/mansion/775979.html,クリオラベルヴィ天神,福岡県福岡市中央区今泉2丁目3番36号,"['薬院大通駅より 徒歩5分', '薬院駅より 徒歩7分', '西鉄福岡（天神）駅より 徒歩10分', '天神駅より 徒歩13分']",2019-10,福岡市中央区,33.5833975,130.3972313
https://db.self-in.com/mansion/1631977.html,サヴォイ ラ・サブリエール,福岡県福岡市中央区唐人町1丁目12番23号,"['唐人町駅より 徒歩5分', '大濠公園駅より 徒歩10分']",2019-10,福岡市中央区,33.5916539,130.3721839
https://db.self-in.com/mansion/1430789.html,アルファシオリエンソ,福岡県福岡市中央区春吉1丁目5番1号,"['渡辺通駅より 徒歩5分', '薬院駅より 徒歩8分', '天神南駅より 徒歩14分', '薬院大通駅より 徒歩16分', '西鉄福岡（天神）駅より 徒歩17分', '天神駅より 徒歩19分']",2019-9,福岡市中央区,33.5829931,130.4086073
https://db.self-in.com/mansion/780926.html,パークホームズ大濠一丁目,福岡県福岡市中央区大濠1丁目5番7号,"['六本松駅より 徒歩8分', '唐人町駅より 徒歩13分']",2019-9,福岡市中央区,33.5830958,130.3746341
https://db.self-in.com/mansion/780924.html,デュオヴェール薬院,福岡県福岡市中央区高砂1丁目17番17号,['薬院駅より 徒歩7分'],2019-8,福岡市中央区,33.5798307,130.406497
https://db.self-in.com/mansion/779185.html,サンメゾン大濠公園北,福岡県福岡市中央区港2丁目1番28号,['大濠公園駅より 徒歩7分'],2019-8,福岡市中央区,33.5925894,130.3823624
https://db.self-in.com/mansion/1385687.html,デュオヴェール薬院est,福岡県福岡市中央区高砂1丁目17番,"['薬院駅より 徒歩7分', '薬院駅より 徒歩7分', '「渡辺通一丁目FM福岡前」バス停より 徒歩4分']",2019-8,福岡市中央区,33.5798307,130.406497
https://db.self-in.com/mansion/778039.html,アクロス薬院レジーナガーデン,福岡県福岡市中央区高砂2丁目19番11号,['薬院駅より 徒歩9分'],2019-7,福岡市中央区,33.5780334,130.4075322
https://db.self-in.com/mansion/777296.html,グランドメゾン六本松ザテラス,福岡県福岡市中央区輝国2丁目10番8号,"['六本松駅より 徒歩14分', '西鉄バス「梅光園口」バス停より 徒歩6分', '桜坂駅より 徒歩22分']",2019-7,福岡市中央区,33.5689838,130.3806495
https://db.self-in.com/mansion/1412443.html,リスタ平尾　,福岡県福岡市中央区平尾3丁目15番,"['西鉄平尾駅より 徒歩8分', '薬院駅より 徒歩9分']",2019-7,福岡市中央区,33.5753848,130.4005638
https://db.self-in.com/mansion/767439.html,ザ・パークハウス 赤坂タワーレジデンス,福岡県福岡市中央区長浜2丁目2番,['赤坂駅より 徒歩6分'],2019-7,福岡市中央区,33.5932307,130.3896915
https://db.self-in.com/mansion/1412309.html,クラブザ大濠二丁目,福岡県福岡市中央区大濠2丁目7番5号,"['唐人町駅より 徒歩6分', '六本松駅より 徒歩16分']",2019-7,福岡市中央区,33.5866607,130.3721005
https://db.self-in.com/mansion/784110.html,モントーレ舞鶴ベイレジデンス,福岡県福岡市中央区港1丁目9番,"['大濠公園駅より 徒歩10分', '赤坂駅より 徒歩11分']",2019-7,福岡市中央区,33.593797,130.3847923
https://db.self-in.com/mansion/781304.html,DOOP VILLAGE 小笹,福岡県福岡市中央区小笹1丁目13番6号,['西鉄バス「小笹」バス停より 徒歩2分'],2019-7,福岡市中央区,33.5640395,130.3902296
https://db.self-in.com/mansion/775195.html,デュオヴェール大濠公園,福岡県福岡市中央区荒戸3丁目78番1号,"['大濠公園駅より 徒歩6分', '「荒戸二丁目」バス停より 徒歩2分']",2019-3,福岡市中央区,33.5925741,130.3745544
https://db.self-in.com/mansion/763519.html,MJR桜坂ザ・レジデンス,福岡県福岡市中央区桜坂1丁目2番5号,"['桜坂駅より 徒歩1分', '六本松駅より 徒歩13分', '薬院大通駅より 徒歩13分']",2019-3,福岡市中央区,33.5773289,130.3877892
https://db.self-in.com/mansion/1397932.html,エンクレスト天神テラス,福岡県福岡市中央区今泉1丁目5番1号,"['天神南駅より 徒歩6分', '薬院駅より 徒歩8分', '西鉄バス今泉一丁目バス停より 徒歩1分']",2019-3,福岡市中央区,33.5845118,130.3994388
https://db.self-in.com/mansion/1412310.html,サンメゾン今川,福岡県福岡市中央区今川1丁目21番417号,['唐人町駅より 徒歩6分'],2019-2,福岡市中央区,33.5862861,130.3692954
https://db.self-in.com/mansion/1412482.html,グランフォーレ平尾四丁目レジデンス,福岡県福岡市中央区平尾4丁目11番25号,"['西鉄平尾駅より 徒歩11分', '薬院大通駅より 徒歩12分', '西鉄バス「山荘通」バス停より 徒歩5分']",2019-1,福岡市中央区,33.57364500000001,130.39863
https://db.self-in.com/mansion/784308.html,グランフォーレ六本松スタイル,福岡県福岡市中央区草香江2丁目2番22号,['六本松駅より 徒歩5分'],2019-1,福岡市中央区,33.5776268,130.37393
https://db.self-in.com/mansion/763289.html,グランドメゾン浄水ガーデンシティフォレストゲート３,福岡県福岡市中央区薬院4丁目13番61号,['薬院大通駅より 徒歩5分'],2018-12,福岡市中央区,33.5774345,130.396151
https://db.self-in.com/mansion/759432.html,プレミスト天神赤坂タワー,福岡県福岡市中央区大名2丁目10番10号,"['赤坂駅より 徒歩2分', '西鉄バス「大名二丁目」バス停より 徒歩1分']",2018-10,福岡市中央区,33.5897928,130.3921216
https://db.self-in.com/mansion/751123.html,ザ・パークハウス桜坂サンリヤン,福岡県福岡市中央区桜坂3丁目5番54号,['桜坂駅より 徒歩3分'],2018-9,福岡市中央区,33.57687130000001,130.3891868
https://db.self-in.com/mansion/767993.html,グランフォーレ大濠西,福岡県福岡市中央区鳥飼3丁目9番1号,['西新駅より 徒歩9分'],2018-9,福岡市中央区,33.5840381,130.3661072
https://db.self-in.com/mansion/1412277.html,サングレート平尾山荘,福岡県福岡市中央区平尾5丁目1番,['薬院大通駅より 徒歩13分'],2018-8,福岡市中央区,33.5724682,130.3961434
https://db.self-in.com/mansion/760063.html,デュオヒルズ大濠公園桜並木,福岡県福岡市中央区荒戸3丁目5番60号,['大濠公園駅より 徒歩9分'],2018-8,福岡市中央区,33.5942402,130.3758654
https://db.self-in.com/mansion/767233.html,グランドメゾン大濠サウスサイドレジデンス,福岡県福岡市中央区草香江1丁目4番23号,"['六本松駅より 徒歩5分', '西鉄バス「大濠公園南」バス停より 徒歩3分']",2018-7,福岡市中央区,33.5810337,130.3758901
https://db.self-in.com/mansion/1395173.html,グランドオーク地行 グランドコート棟,福岡県福岡市中央区地行2丁目13番35号,['唐人町駅より 徒歩6分'],2018-7,福岡市中央区,33.5892809,130.365086
https://db.self-in.com/mansion/765174.html,グランドオーク地行,福岡県福岡市中央区地行2丁目13番35号,['唐人町駅より 徒歩6分'],2018-7,福岡市中央区,33.5892809,130.365086
https://db.self-in.com/mansion/759524.html,グランドメゾン赤坂けやきレジデンス,福岡県福岡市中央区赤坂2丁目1番,['赤坂駅より 徒歩7分'],2018-4,福岡市中央区,33.5847112,130.3894803
https://db.self-in.com/mansion/760972.html,ブラントン大濠公園,福岡県福岡市中央区荒戸2丁目4番20号,"['大濠公園駅より 徒歩7分', '西鉄「荒戸二丁目」バス停より 徒歩1分', '唐人町駅より 徒歩10分']",2018-3,福岡市中央区,33.5931329,130.3759126
https://db.self-in.com/mansion/774068.html,ネストピア大濠公園駅前２,福岡県福岡市中央区大手門3丁目6番13号,['大濠公園駅より 徒歩2分'],2018-1,福岡市中央区,33.5913641,130.379386
https://db.self-in.com/mansion/758230.html,グランド・サンリヤン 六本松,福岡県福岡市中央区六本松4丁目4番,"['六本松駅より 徒歩5分', '西鉄「梅光園一丁目」バス停より 徒歩2分']",2018-1,福岡市中央区,33.574941,130.3782832
https://db.self-in.com/mansion/757761.html,ザ・パークハウス平尾浄水通り,福岡県福岡市中央区平尾3丁目30番,['薬院大通駅より 徒歩8分'],2017-12,福岡市中央区,33.5758151,130.3958248
https://db.self-in.com/mansion/1404170.html,ヴィラージュ大濠,福岡県福岡市中央区今川1丁目25番7号,['唐人町駅より 徒歩9分'],2017-12,福岡市中央区,33.5855547,130.3702049
https://db.self-in.com/mansion/756049.html,グランドメゾン浄水ガーデンシティ フォレストゲート２,福岡県福岡市中央区薬院4丁目13番62,['薬院大通駅より 徒歩4分'],2017-12,福岡市中央区,33.5779536,130.3960297
https://db.self-in.com/mansion/752499.html,フリーディア赤坂レジデンス,福岡県福岡市中央区舞鶴3丁目6番,['赤坂駅より 徒歩5分'],2017-12,福岡市中央区,33.5916373,130.3877796
https://db.self-in.com/mansion/751187.html,MJR赤坂タワー,福岡県福岡市中央区赤坂1丁目13番2号,"['赤坂駅より 徒歩1分', '天神駅より 徒歩13分']",2017-10,福岡市中央区,33.5893898,130.3897556
https://db.self-in.com/mansion/748227.html,ネクサス大濠,福岡県福岡市中央区草香江2丁目11番30号,"['六本松駅より 徒歩8分', '唐人町駅より 徒歩13分', '西鉄バス「大濠」バス停より 徒歩1分']",2017-10,福岡市中央区,33.5818839,130.373406
https://db.self-in.com/mansion/768736.html,パークリュクス大手門ｍｏｎｏ,福岡県福岡市中央区大手門1丁目61番1号,['赤坂駅より 徒歩7分'],2017-10,福岡市中央区,33.5892447,130.3837965
https://db.self-in.com/mansion/756690.html,グランドメゾン大濠公園２０１７,福岡県福岡市中央区荒戸1丁目6番3号,['大濠公園駅より 徒歩4分'],2017-9,福岡市中央区,33.5917917,130.3778074
https://db.self-in.com/mansion/748522.html,グランドメゾン薬院レジデンス,福岡県福岡市中央区薬院2丁目17番24号,['薬院大通駅より 徒歩5分'],2017-7,福岡市中央区,33.5831676,130.3935707
https://db.self-in.com/mansion/1397404.html,サヴォイコートオブアームズ,福岡県福岡市中央区清川2丁目5番1号,"['渡辺通駅より 徒歩9分', '高砂バス停より 徒歩4分']",2017-6,福岡市中央区,33.5803729,130.4107722
https://db.self-in.com/mansion/1388497.html,パークホームズ大濠二丁目,福岡県福岡市中央区大濠2丁目13番38号,['唐人町駅より 徒歩5分'],2017-6,福岡市中央区,33.5878408,130.3711113
https://db.self-in.com/mansion/1561805.html,アクタス天神スクエア,福岡県福岡市中央区春吉1丁目,"['渡辺通駅より 徒歩4分', '薬院駅より 徒歩10分', '天神南駅より 徒歩14分']",2017-5,福岡市中央区,33.5842675,130.4076915
https://db.self-in.com/mansion/771191.html,グランドパレス浄水通り,福岡県福岡市中央区薬院4丁目15番10号,"['薬院大通駅より 徒歩6分', '九電体育館バス停より 徒歩2分']",2017-2,福岡市中央区,33.5776939,130.3947646
https://db.self-in.com/mansion/721833.html,MJR六本松,福岡県福岡市中央区六本松4丁目2番,['六本松駅より 徒歩2分'],2017-1,福岡市中央区,33.5778784,130.3785545
https://db.self-in.com/mansion/752623.html,グランドメゾン　ザ・大濠,福岡県福岡市中央区大濠1丁目9番25号,['唐人町駅より 徒歩10分'],2017-1,福岡市中央区,33.5847642,130.3736863
https://db.self-in.com/mansion/749251.html,レジア赤坂テラス,福岡県福岡市中央区長浜2丁目17番,"['赤坂駅より 徒歩6分', '西鉄バス「長浜2丁目」バス停より 徒歩1分']",2016-12,福岡市中央区,33.5924319,130.3876203
https://db.self-in.com/mansion/748276.html,グランドメゾン平尾プレイス,福岡県福岡市中央区平尾4丁目2番6号,['西鉄平尾駅より 徒歩6分'],2016-10,福岡市中央区,33.5726878,130.4015593
https://db.self-in.com/mansion/1391373.html,グランフォーレプライム六本松,福岡県福岡市中央区六本松4丁目9番23号,['六本松駅より 徒歩4分'],2016-9,福岡市中央区,33.5760773,130.375931
https://db.self-in.com/mansion/746922.html,ライオンズ笹丘サーパスレジデンス,福岡県福岡市中央区笹丘1丁目29番24号,"['西鉄バス「田島」バス停より 徒歩1分', '六本松駅より 徒歩18分', '別府駅より 徒歩17分']",2016-9,福岡市中央区,33.5665427,130.3764353
https://db.self-in.com/mansion/753205.html,グランドメゾン赤坂LUXE,福岡県福岡市中央区赤坂2丁目2番31号,['赤坂駅より 徒歩8分'],2016-8,福岡市中央区,33.58542860000001,130.3876004
https://db.self-in.com/mansion/1435827.html,グランパーク平尾,福岡県福岡市中央区平尾4丁目5番19号,"['西鉄平尾駅より 徒歩8分', '薬院大通駅より 徒歩16分']",2016-5,福岡市中央区,33.5718209,130.4006475
https://db.self-in.com/mansion/747614.html,パークホームズ薬院二丁目,福岡県福岡市中央区薬院2丁目11番28号,"['薬院大通駅より 徒歩8分', '赤坂駅より 徒歩10分']",2016-4,福岡市中央区,33.5818461,130.3932361
https://db.self-in.com/mansion/765548.html,フェリスト赤坂,福岡県福岡市中央区赤坂3丁目8番,"['桜坂駅より 徒歩11分', '赤坂駅より 徒歩12分', '西鉄バス「赤坂二丁目」バス停より 徒歩3分']",2016-3,福岡市中央区,33.5836695,130.3867639
https://db.self-in.com/mansion/774035.html,サヴォイグランデウォーターサイド　,福岡県福岡市中央区長浜2丁目2番26号,"['赤坂駅より 徒歩7分', '長浜二丁目バス停より 徒歩2分']",2016-3,福岡市中央区,33.593737,130.3894992
https://db.self-in.com/mansion/709969.html,ネクサス薬院二丁目,福岡県福岡市中央区薬院2丁目5番15号,['薬院大通駅より 徒歩3分'],2016-2,福岡市中央区,33.5801855,130.3946699
https://db.self-in.com/mansion/1435742.html,ベルコリーヌ平尾,福岡県福岡市中央区平尾4丁目18番35号,"['西鉄平尾駅より 徒歩11分', '薬院大通駅より 徒歩12分']",2016-2,福岡市中央区,33.5736551,130.3981016
https://db.self-in.com/mansion/708996.html,ザ・パークハウス平尾レジデンス,福岡県福岡市中央区平尾3丁目26番13号,['薬院大通駅より 徒歩12分'],2016-1,福岡市中央区,33.5739769,130.398372
https://db.self-in.com/mansion/710029.html,アルファスタイル平尾４丁目,福岡県福岡市中央区平尾4丁目18番37号,['西鉄バス「山荘通」バス停より 徒歩5分'],2016-1,福岡市中央区,33.5736436,130.3980948
https://db.self-in.com/mansion/747669.html,モントーレ輝国グレースコート,福岡県福岡市中央区輝国2丁目5番22号,"['笹丘二丁目バス停より 徒歩2分', '西鉄平尾駅より バス15分']",2016-1,福岡市中央区,33.5680898,130.3816986
https://db.self-in.com/mansion/708466.html,デュレジア平尾,福岡県福岡市中央区那の川2丁目7番1号,['西鉄平尾駅より 徒歩4分'],2015-12,福岡市中央区,33.5745855,130.4084622
https://db.self-in.com/mansion/1629848.html,ネストピア六本松,福岡県福岡市中央区六本松3丁目7番1号,['六本松駅より 徒歩6分'],2015-12,福岡市中央区,33.5779308,130.3818771
https://db.self-in.com/mansion/1390889.html,ウィンステージ天神南,福岡県福岡市中央区清川2丁目4番19号,['渡辺通駅より 徒歩11分'],2015-8,福岡市中央区,33.5789052,130.4117399
https://db.self-in.com/mansion/1337699.html,グランフォーレプライム大手門,福岡県福岡市中央区大手門2丁目8番17号,"['赤坂駅より 徒歩11分', '大濠公園駅より 徒歩13分', '天神駅より 徒歩20分']",2015-8,福岡市中央区,33.5917276,130.3857283
https://db.self-in.com/mansion/708204.html,サンメゾン大濠公園エルド,福岡県福岡市中央区草香江1丁目8番1号,"['西鉄バス「大濠」バス停バス停より 徒歩1分', '六本松駅より 徒歩7分']",2015-8,福岡市中央区,33.5816088,130.3740365
https://db.self-in.com/mansion/707919.html,グランドメゾン大濠公園２０１５,福岡県福岡市中央区今川1丁目13番8号,['唐人町駅より 徒歩3分'],2015-7,福岡市中央区,33.5881971,130.3700723
https://db.self-in.com/mansion/977368.html,アソシアグロッツォ薬院サウスガーデン　,福岡県福岡市中央区高砂2丁目11番9号,"['西鉄平尾駅より 徒歩7分', '渡辺通駅より 徒歩15分']",2015-7,福岡市中央区,33.5757691,130.410598
https://db.self-in.com/mansion/747670.html,アーガス・レーヴ薬院白金グラン,福岡県福岡市中央区白金2丁目5番2号,['薬院駅より 徒歩11分'],2015-6,福岡市中央区,33.5771255,130.4078729
https://db.self-in.com/mansion/708281.html,ネクサス薬院,福岡県福岡市中央区薬院1丁目12番10号,"['薬院大通駅より 徒歩4分', '薬院駅より 徒歩5分', '西鉄バス「薬院大通り」バス停より 徒歩2分']",2015-6,福岡市中央区,33.5821902,130.3975882
https://db.self-in.com/mansion/1390687.html,ファーネスト平尾駅前レジスタ,福岡県福岡市中央区大宮2丁目5番12号,['西鉄平尾駅より 徒歩4分'],2015-4,福岡市中央区,33.5750745,130.4062084
https://db.self-in.com/mansion/1329717.html,グランドメゾン浄水ガーデンシティサウスフォレスト,福岡県福岡市中央区薬院4丁目14番50号,"['薬院大通駅より 徒歩7分', '薬院駅より 徒歩9分', '西鉄平尾駅より 徒歩16分']",2015-3,福岡市中央区,33.5761109,130.3955513
https://db.self-in.com/mansion/977215.html,エンクレスト天神モード,福岡県福岡市中央区春吉2丁目10番11号,"['西鉄福岡（天神）駅より 徒歩7分', '天神駅より 徒歩10分']",2015-3,福岡市中央区,33.5871099,130.406278
https://db.self-in.com/mansion/707956.html,ライオンズ大濠公園グランゲイト,福岡県福岡市中央区大手門2丁目4番,"['大濠公園駅より 徒歩7分', '赤坂駅より 徒歩9分']",2015-3,福岡市中央区,33.5910861,130.3839558
https://db.self-in.com/mansion/1328014.html,グランドメゾン浄水ガーデンシティ,福岡県福岡市中央区薬院4丁目14番50号,['薬院駅より 徒歩12分'],2015-3,福岡市中央区,33.5761109,130.3955513
https://db.self-in.com/mansion/776630.html,ザ・パークハウス大濠公園,福岡県福岡市中央区荒戸1丁目8番2号,"['大濠公園駅より 徒歩5分', '荒戸2丁目バス停より 徒歩3分']",2015-3,福岡市中央区,33.5927409,130.3781189
https://db.self-in.com/mansion/775286.html,エンクレスト天神MODE,福岡県福岡市中央区春吉2丁目10番11号,"['渡辺通駅より 徒歩5分', '天神南駅より 徒歩5分']",2015-2,福岡市中央区,33.5871099,130.406278
https://db.self-in.com/mansion/708174.html,アクタス大濠パークビュー,福岡県福岡市中央区荒戸1丁目9番,"['西鉄バス「港二丁目」バス停バス停より 徒歩2分', '大濠公園駅より 徒歩4分']",2014-12,福岡市中央区,33.5927918,130.3788569
https://db.self-in.com/mansion/971777.html,アソシアグロッツォ薬院サウスフィールド,福岡県福岡市中央区高砂2丁目11番19号,"['西鉄平尾駅より 徒歩9分', '薬院駅より 徒歩15分', '渡辺通駅より 徒歩15分']",2014-11,福岡市中央区,33.5756249,130.4096433
https://db.self-in.com/mansion/707968.html,プレミスト平尾１丁目,福岡県福岡市中央区平尾1丁目3番38号,"['薬院駅より 徒歩3分', '天神駅より 徒歩11分']",2014-10,福岡市中央区,33.5798216,130.4014797
https://db.self-in.com/mansion/708293.html,ウェリス平尾山荘,福岡県福岡市中央区平尾5丁目6番12号,"['西鉄「山荘通」バス停より 徒歩4分', '西鉄平尾駅より 徒歩10分']",2014-7,福岡市中央区,33.5708549,130.3983887
https://db.self-in.com/mansion/1311886.html,エンクレスト天神シティ,福岡県福岡市中央区西中洲12番12号,"['西鉄福岡（天神）駅より 徒歩8分', '天神駅より 徒歩8分']",2014-6,福岡市中央区,33.5904883,130.4040972
https://db.self-in.com/mansion/708275.html,プレスタイル大濠公園,福岡県福岡市中央区大手門1丁目5番11号,"['西鉄バス「大手門」バス停バス停より 徒歩3分', '大濠公園駅より 徒歩9分', '赤坂駅より 徒歩10分']",2014-6,福岡市中央区,33.5892638,130.3838242
https://db.self-in.com/mansion/763395.html,グランフォーレ平尾ステーションプラザ２,福岡県福岡市中央区大宮2丁目5番19号,"['西鉄平尾駅より 徒歩2分', '薬院駅より 徒歩12分', '薬院大通駅より 徒歩15分']",2014-3,福岡市中央区,33.5746616,130.4055256
https://db.self-in.com/mansion/1318097.html,グランフォーレ平尾ステーションプラザ,福岡県福岡市中央区大宮2丁目5番20号,"['西鉄平尾駅より 徒歩2分', '薬院駅より 徒歩13分', '渡辺通駅より 徒歩17分']",2014-3,福岡市中央区,33.5747463,130.4054056
https://db.self-in.com/mansion/968463.html,グランフォーレ平尾ステーションプラザ１,福岡県福岡市中央区大宮2丁目5番20号,"['西鉄平尾駅より 徒歩3分', '薬院駅より 徒歩10分', '薬院駅より 徒歩10分']",2014-2,福岡市中央区,33.5747463,130.4054056
https://db.self-in.com/mansion/1380914.html,エンクレスト薬院NOBLE,福岡県福岡市中央区薬院3丁目12番16号,"['薬院駅より 徒歩5分', '薬院大通駅より 徒歩6分']",2014-2,福岡市中央区,33.5798063,130.3988116
https://db.self-in.com/mansion/779593.html,エンクレスト天神AVANT,福岡県福岡市中央区渡辺通4丁目3番23号,"['薬院駅より 徒歩2分', '渡辺通駅より 徒歩5分']",2014-1,福岡市中央区,33.5839895,130.4019927
https://db.self-in.com/mansion/769752.html,モントーレセントラルベイコート,福岡県福岡市中央区長浜3丁目16番2号,['大濠公園駅より 徒歩11分'],2014-1,福岡市中央区,33.5944709,130.3847234
https://db.self-in.com/mansion/967115.html,グランフォーレプライム大濠南,福岡県福岡市中央区草香江2丁目1番34号,"['六本松駅より 徒歩3分', '別府駅より 徒歩12分']",2013-12,福岡市中央区,33.5779389,130.3754731
https://db.self-in.com/mansion/784767.html,ベイベリー西公園,福岡県福岡市中央区港2丁目1番30号,"['大濠公園駅より 徒歩9分', '赤坂駅より 徒歩15分']",2013-10,福岡市中央区,33.5923782,130.3828082
https://db.self-in.com/mansion/1441941.html,アクセス六本松南サージュ,福岡県福岡市中央区梅光園1丁目2番18号,"['六本松駅より 徒歩5分', '別府駅より 徒歩9分']",2013-10,福岡市中央区,33.5745646,130.3765137
https://db.self-in.com/mansion/976595.html,サーパス赤坂マスターズビュー,福岡県福岡市中央区六本松3丁目437番1号,['六本松駅より 徒歩8分'],2013-10,福岡市中央区,33.5790311,130.3822031
https://db.self-in.com/mansion/763376.html,アンピール輝国,福岡県福岡市中央区輝国2丁目8番11号,['六本松駅より 徒歩13分'],2013-10,福岡市中央区,33.5692907,130.3813677
https://db.self-in.com/mansion/710223.html,ＭＪＲ赤坂けやき通り,福岡県福岡市中央区赤坂2丁目1番15号,['赤坂駅より 徒歩8分'],2013-9,福岡市中央区,33.584319,130.388625
https://db.self-in.com/mansion/599244.html,ウェリス大濠公園Ｚステージ,福岡県福岡市中央区黒門6番14号,['唐人町駅より 徒歩2分'],2013-9,福岡市中央区,33.589554,130.3710485
https://db.self-in.com/mansion/1398446.html,エンクレスト天神FOCUS,福岡県福岡市中央区春吉2丁目9番16号,"['天神駅より 徒歩11分', '西鉄バス「春吉」バス停より 徒歩4分', '西鉄福岡（天神）駅より 徒歩9分']",2013-7,福岡市中央区,33.5876028,130.406775
https://db.self-in.com/mansion/598527.html,グランドメゾン平尾テラス,福岡県福岡市中央区平尾2丁目8番9号,['西鉄平尾駅より 徒歩3分'],2013-7,福岡市中央区,33.5741814,130.4043127
https://db.self-in.com/mansion/716819.html,グランドメゾン薬院,福岡県福岡市中央区薬院2丁目2番17号,['薬院大通駅より 徒歩3分'],2013-6,福岡市中央区,33.5816957,130.396701
https://db.self-in.com/mansion/762959.html,エンクレスト舞鶴２,福岡県福岡市中央区舞鶴1丁目6番20号,"['天神駅より 徒歩7分', '赤坂駅より 徒歩8分', '西鉄福岡（天神）駅より 徒歩11分', '西鉄「長浜1丁目」バス停より 徒歩1分']",2013-6,福岡市中央区,33.5942015,130.3935014
https://db.self-in.com/mansion/716986.html,グランフォーレ平尾レジデンス,福岡県福岡市中央区平尾3丁目7番28号,['西鉄平尾駅より 徒歩7分'],2013-6,福岡市中央区,33.5758589,130.4014562
https://db.self-in.com/mansion/1441943.html,グランドメゾン赤坂１丁目,福岡県福岡市中央区赤坂1丁目2番15号,['赤坂駅より 徒歩7分'],2013-5,福岡市中央区,33.5854697,130.3899703
https://db.self-in.com/mansion/720055.html,グランドメゾン大濠パーク,福岡県福岡市中央区黒門3番7号,['唐人町駅より 徒歩5分'],2013-5,福岡市中央区,33.5886276,130.3733194
https://db.self-in.com/mansion/763374.html,アソシアグロッツォ天神サウス,福岡県福岡市中央区高砂1丁目19番15号,['薬院駅より 徒歩6分'],2013-5,福岡市中央区,33.5799399,130.4057329
https://db.self-in.com/mansion/751881.html,サヴォイテンジンスクワイヤー,福岡県福岡市中央区天神3丁目7番22号,"['天神駅より 徒歩6分', '西鉄福岡（天神）駅より 徒歩9分', '天神南駅より 徒歩13分']",2013-3,福岡市中央区,33.5937118,130.3954664
https://db.self-in.com/mansion/767512.html,ルキシア薬院,福岡県福岡市中央区白金1丁目3番16号,['薬院駅より 徒歩4分'],2013-3,福岡市中央区,33.5805939,130.4037747
https://db.self-in.com/mansion/598630.html,ウェリスサンリヤン薬院,福岡県福岡市中央区大宮1丁目5番3号,['薬院駅より 徒歩6分'],2013-3,福岡市中央区,33.5780894,130.4037495
https://db.self-in.com/mansion/969856.html,サンヒルズ薬院,福岡県福岡市中央区大宮1丁目1番8号,"['薬院駅より 徒歩3分', '薬院駅より 徒歩3分']",2013-3,福岡市中央区,33.5799446,130.4022251
https://db.self-in.com/mansion/978577.html,モントーレ西公園アヴァンティ,福岡県福岡市中央区荒戸2丁目5番36号,['大濠公園駅より 徒歩9分'],2013-3,福岡市中央区,33.5941176,130.3774188
https://db.self-in.com/mansion/768604.html,エンクレスト天神サイド,福岡県福岡市中央区西中洲2番12号,"['天神南駅より 徒歩4分', '天神駅より 徒歩5分', '中洲川端駅より 徒歩6分', '西鉄福岡（天神）駅より 徒歩6分', '春吉バス停より 徒歩2分']",2013-2,福岡市中央区,33.590402,130.4048843
https://db.self-in.com/mansion/1442485.html,ウインステージ平尾,福岡県福岡市中央区平尾4丁目4番22号,"['西鉄平尾駅より 徒歩7分', '薬院大通駅より 徒歩15分']",2013-2,福岡市中央区,33.5722484,130.4015593
https://db.self-in.com/mansion/1398453.html,エンクレスト天神MARK,福岡県福岡市中央区春吉1丁目6番10号,"['渡辺通駅より 徒歩4分', '西鉄バス「渡辺通1丁目サンセルコ前」バス停より 徒歩1分', '西鉄バス「渡辺通1丁目電気ビル前」バス停より 徒歩4分']",2013-2,福岡市中央区,33.5827405,130.4077114
https://db.self-in.com/mansion/1633039.html,グランフォーレ大橋駅前レジデンス,福岡県福岡市南区大橋1丁目10番9号,['大橋駅より 徒歩2分'],2022-12,福岡市南区,33.5576109,130.4282334
https://db.self-in.com/mansion/1426712.html,アルテマインド塩原,福岡県福岡市南区塩原1丁目,['竹下駅より 徒歩4分'],2022-11,福岡市南区,33.5658985,130.4306216
https://db.self-in.com/mansion/1631336.html,マークネクスト高宮,福岡県福岡市南区野間1丁目91番,['高宮駅より 徒歩5分'],2022-11,福岡市南区,33.5631967,130.4166098
https://db.self-in.com/mansion/1421024.html,アルバガーデン グランビュー大橋南,福岡県福岡市南区的場2丁目,['西鉄「的場二丁目」バス停より 徒歩2分'],2022-10,福岡市南区,33.5414693,130.4331688
https://db.self-in.com/mansion/1411932.html,オープンレジデンシア平尾市崎,福岡県福岡市南区市崎1丁目213番1,['西鉄平尾駅より 徒歩5分'],2022-8,福岡市南区,33.5705372,130.4038689
https://db.self-in.com/mansion/1445593.html,アクタス大橋グランネクスト,福岡県福岡市南区大橋3丁目3番13号,['大橋駅より 徒歩8分'],2022-7,福岡市南区,33.5543693,130.4287509
https://db.self-in.com/mansion/1410146.html,オーヴィジョン平尾,福岡県福岡市南区平和2丁目1番,"['西鉄平尾駅より 徒歩9分', '西鉄「山荘通」バス停より 徒歩4分']",2022-5,福岡市南区,33.5707602,130.4001258
https://db.self-in.com/mansion/1405412.html,グランドオーク大橋,福岡県福岡市南区大橋3丁目308番,"['大橋駅より 徒歩11分', '「三宅本町」バス停より 徒歩2分']",2022-1,福岡市南区,33.5538485,130.4299847
https://db.self-in.com/mansion/1423364.html,オープンレジデンシア高宮,福岡県福岡市南区高宮2丁目,"['高宮駅より 徒歩6分', '西鉄平尾駅より 徒歩9分']",2021-6,福岡市南区,33.5689562,130.4086471
https://db.self-in.com/mansion/1423370.html,オープンレジデンシア高宮アベニュー,福岡県福岡市南区高宮2丁目3番10号,"['高宮駅より 徒歩6分', '西鉄平尾駅より 徒歩9分']",2021-6,福岡市南区,33.5698379,130.4103193
https://db.self-in.com/mansion/1395483.html,オープンレジデンシア高宮テラス,福岡県福岡市南区高宮2丁目,"['高宮駅より 徒歩6分', '西鉄平尾駅より 徒歩9分']",2021-6,福岡市南区,33.5689562,130.4086471
https://db.self-in.com/mansion/1423333.html,オープンレジデンシア高宮ヒルズ,福岡県福岡市南区高宮2丁目19番9号,"['高宮駅より 徒歩11分', '西鉄平尾駅より 徒歩12分']",2021-5,福岡市南区,33.567353,130.4072037
https://db.self-in.com/mansion/1423168.html,DOOP多賀の杜,福岡県福岡市南区多賀2丁目5番12号,['西鉄バス「野間4丁目」バス停より 徒歩3分'],2021-2,福岡市南区,33.5589083,130.411255
https://db.self-in.com/mansion/1422867.html,ファーネストプレミアムクラス平和2,福岡県福岡市南区平和1丁目23番48号,"['西鉄平尾駅より 徒歩13分', '西鉄「平和2丁目」バス停より 徒歩2分']",2020-8,福岡市南区,33.5675721,130.4014399
https://db.self-in.com/mansion/1381918.html,アソシア テラス高宮,福岡県福岡市南区清水3丁目24番1号,"['高宮駅より 徒歩8分', '西鉄バス「清水町」バス停より 徒歩4分']",2020-7,福岡市南区,33.5678149,130.4196752
https://db.self-in.com/mansion/1385057.html,ファーネスト大橋三丁目ルシエ,福岡県福岡市南区大橋3丁目17番33号,['大橋駅より 徒歩10分'],2020-7,福岡市南区,33.5540413,130.4325718
https://db.self-in.com/mansion/1412464.html,オーヴィジョン野間グランヒルズ,福岡県福岡市南区野間4丁目29番1号,['西鉄バス「野間大池」バス停より 徒歩2分'],2020-6,福岡市南区,33.5548939,130.4100307
https://db.self-in.com/mansion/1412561.html,グランフォーレ大橋サウステラス,福岡県福岡市南区向新町2丁目2番19号,['西鉄『野多目ランプ入口』バス停より 徒歩3分'],2020-2,福岡市南区,33.5412008,130.4283523
https://db.self-in.com/mansion/781074.html,トラスト野間大池公園レジデンス,福岡県福岡市南区寺塚1丁目16番,['西鉄バス「長住二丁目」バス停より 徒歩1分'],2020-1,福岡市南区,33.5536702,130.4024354
https://db.self-in.com/mansion/1412506.html,サンメゾン平和の杜,福岡県福岡市南区平和2丁目27番22号,['西鉄平尾駅より 徒歩14分'],2020-1,福岡市南区,33.5683081,130.3979753
https://db.self-in.com/mansion/784111.html,エイリックスタイル大橋テラスヒルズ,福岡県福岡市南区大橋4丁目29番30号,['大橋駅より 徒歩9分'],2020-1,福岡市南区,33.5555262,130.423872
https://db.self-in.com/mansion/779759.html,ライオンズ平尾サーパスレジデンス,福岡県福岡市南区大楠2丁目7番20号,['西鉄平尾駅より 徒歩6分'],2019-12,福岡市南区,33.57401290000001,130.4111554
https://db.self-in.com/mansion/782333.html,アメイズ長住南皿山中央公園,福岡県福岡市南区皿山2丁目6番,['西鉄バス「皿山三丁目」バス停より 徒歩1分'],2019-11,福岡市南区,33.5443002,130.4046653
https://db.self-in.com/mansion/1412374.html,フリーディア高宮プレミアム,福岡県福岡市南区高宮1丁目22番33号,['西鉄平尾駅より 徒歩5分'],2019-10,福岡市南区,33.5713935,130.4053272
https://db.self-in.com/mansion/773669.html,パークアソシア大橋レジデンス,福岡県福岡市南区高木3丁目16番22号,"['井尻駅より 徒歩11分', '大橋駅より 徒歩19分', '西鉄バス「井尻1丁目」バス停より 徒歩4分']",2019-4,福岡市南区,33.555128,130.4378418
https://db.self-in.com/mansion/781379.html,DOOP高宮の杜,福岡県福岡市南区高宮1丁目12番25号,['西鉄平尾駅より 徒歩4分'],2019-4,福岡市南区,33.5714682,130.4066761
https://db.self-in.com/mansion/767403.html,パークアソシア長丘翠景,福岡県福岡市南区長丘2丁目25番39号,['西鉄「長丘小学校入り口」バス停より 徒歩2分'],2019-4,福岡市南区,33.5560103,130.3953893
https://db.self-in.com/mansion/775193.html,デュオヴェール平尾駅前,福岡県福岡市南区大楠2丁目20番21号,"['西鉄平尾駅より 徒歩2分', '「西鉄平尾駅」バス停より 徒歩6分']",2019-3,福岡市南区,33.5732947,130.4079129
https://db.self-in.com/mansion/774065.html,ヒューマインド井尻ザプレイス,福岡県福岡市南区横手3丁目26番43号,"['井尻駅より 徒歩12分', '笹原駅より 徒歩20分']",2019-2,福岡市南区,33.5477593,130.4383724
https://db.self-in.com/mansion/779196.html,グランフォーレ大橋プレミア,福岡県福岡市南区塩原4丁目19番15号,['大橋駅より 徒歩7分'],2018-11,福岡市南区,33.5594657,130.4317857
https://db.self-in.com/mansion/765467.html,ウェルグラン大橋駅,福岡県福岡市南区三宅1丁目7番,['大橋駅より 徒歩9分'],2018-9,福岡市南区,33.5532138,130.4260044
https://db.self-in.com/mansion/762689.html,グランフォーレ大橋テラス,福岡県福岡市南区高木3丁目5番10号,"['大橋駅より 徒歩16分', '西鉄バス「井尻一丁目」バス停より 徒歩6分']",2018-3,福岡市南区,33.5568362,130.4357572
https://db.self-in.com/mansion/762691.html,エイリックスタイル大楠パークプライム,福岡県福岡市南区大楠1丁目2番18号,['西鉄「パナソニック前」バス停より 徒歩3分'],2018-3,福岡市南区,33.5744307,130.4199339
https://db.self-in.com/mansion/758166.html,アーバンパレス長丘ヒルズ,福岡県福岡市南区長丘2丁目4番18号,"['高宮駅より 徒歩26分', '西鉄バス「長丘2丁目」バス停より 徒歩3分']",2018-1,福岡市南区,33.5597018,130.3997028
https://db.self-in.com/mansion/771483.html,エイリックスタイル大橋南ザ・テラス,福岡県福岡市南区三宅3丁目21番14号,"['大橋駅より 徒歩17分', '三宅本町バス停より 徒歩4分', '大橋駅より バス12分']",2017-11,福岡市南区,33.5483784,130.4305574
https://db.self-in.com/mansion/758813.html,デュ・レジア高宮並木通り,福岡県福岡市南区大楠3丁目27番,"['高宮二丁目バス停より 徒歩4分', '高宮駅より 徒歩6分']",2017-10,福岡市南区,33.57009180000001,130.4119119
https://db.self-in.com/mansion/1412247.html,ブランシエラ高宮五丁目,福岡県福岡市南区高宮5丁目7番7号,['高宮駅より 徒歩4分'],2017-10,福岡市南区,33.56545620000001,130.4145153
https://db.self-in.com/mansion/757245.html,グランドオーク寺塚サウス,福岡県福岡市南区寺塚2丁目4番5号,['西鉄バス「寺塚2丁目」バス停より 徒歩2分'],2017-10,福岡市南区,33.5582358,130.4044264
https://db.self-in.com/mansion/766798.html,クリオ大橋,福岡県福岡市南区塩原4丁目20番,['大橋駅より 徒歩7分'],2017-9,福岡市南区,33.5598756,130.4314176
https://db.self-in.com/mansion/757649.html,モントーレグランシェル,福岡県福岡市南区花畑4丁目10番1号,['西鉄バス「花畑二丁目」バス停より 徒歩5分'],2017-7,福岡市南区,33.5360236,130.398637
https://db.self-in.com/mansion/753098.html,ファーネスト長住ルシエ,福岡県福岡市南区長住7丁目1番22号,['「長住6丁目」バス停より 徒歩1分'],2017-3,福岡市南区,33.5443194,130.3982279
https://db.self-in.com/mansion/751081.html,アーバンパレス長住アベニュー,福岡県福岡市南区長住5丁目16番7号,['西鉄バス\u3000長住4丁目バス停より 徒歩1分'],2017-3,福岡市南区,33.547201,130.3966873
https://db.self-in.com/mansion/757818.html,モントーレ長丘パークスクエア,福岡県福岡市南区長丘1丁目3番2号,"['西鉄バス『寺塚』バス停より 徒歩2分', '高宮駅より バス11分']",2017-2,福岡市南区,33.5546269,130.3997696
https://db.self-in.com/mansion/757484.html,グランドオーク寺塚アベニュー,福岡県福岡市南区寺塚2丁目9番29号,"['高宮駅より 徒歩19分', '西鉄バス「寺塚2丁目」バス停より 徒歩2分']",2017-2,福岡市南区,33.5587635,130.4044201
https://db.self-in.com/mansion/752858.html,エイリックスタイル筑紫丘ザ・テラス,福岡県福岡市南区若久団地2番11号,"['西鉄「緑園前」バス停より 徒歩3分', '高宮駅より 自転車8分']",2017-1,福岡市南区,33.5555704,130.4163112
https://db.self-in.com/mansion/1445936.html,DOOP VILLAGE 大楠,福岡県福岡市南区大楠1丁目31番31号,"['高宮駅より 徒歩12分', '西鉄平尾駅より 徒歩14分', '渡辺通駅より 徒歩22分']",2016-10,福岡市南区,33.5720768,130.4160804
https://db.self-in.com/mansion/747671.html,ヒューマインド筑紫丘公園,福岡県福岡市南区若久団地3番1号,['緑園前バス停より 徒歩4分'],2016-3,福岡市南区,33.5559809,130.4170489
https://db.self-in.com/mansion/746227.html,グランドオーク高宮レジデンス,福岡県福岡市南区高宮5丁目12番15号,['高宮駅より 徒歩4分'],2016-1,福岡市南区,33.5651943,130.4126278
https://db.self-in.com/mansion/784924.html,クラブエイリック平尾駅パークプレイス,福岡県福岡市南区大楠2丁目6番18号,['西鉄平尾駅より 徒歩7分'],2015-12,福岡市南区,33.5733323,130.4116984
https://db.self-in.com/mansion/708326.html,フリーディア大橋プレミアム,福岡県福岡市南区大橋団地2丁目6番,"['大橋駅より 徒歩6分', '西鉄バス「大橋団地前」バス停より 徒歩3分']",2015-9,福岡市南区,33.5580569,130.432134
https://db.self-in.com/mansion/709423.html,リッシュハウス南大橋アマルフィ,福岡県福岡市南区南大橋2丁目24番16号,['西鉄バス「和田三丁目」バス停より 徒歩5分'],2015-7,福岡市南区,33.550678,130.4208495
https://db.self-in.com/mansion/708262.html,ファーネスト大橋二丁目プレシャス,福岡県福岡市南区大橋2丁目24番18号,"['大橋駅より 徒歩7分', '西鉄バス「大橋本町」バス停バス停より 徒歩2分']",2015-7,福岡市南区,33.5557234,130.4313685
https://db.self-in.com/mansion/768911.html,グランディアソラーレ長丘,福岡県福岡市南区長丘4丁目3番,['西鉄バス「下長尾」バス停より 徒歩6分'],2015-6,福岡市南区,33.5576666,130.3922405
https://db.self-in.com/mansion/707870.html,ヒューマインドシティオアシス,福岡県福岡市南区折立町4番6号,"['大橋駅より 徒歩15分', '井尻駅より 徒歩11分']",2015-4,福岡市南区,33.5543506,130.4360741
https://db.self-in.com/mansion/1340129.html,グランフォーレプライム大橋,福岡県福岡市南区大橋2丁目19番27号,"['大橋駅より 徒歩4分', '竹下駅より 徒歩15分', '井尻駅より 徒歩16分']",2015-4,福岡市南区,33.5569171,130.4292008
https://db.self-in.com/mansion/707825.html,エイルマンション清水ロゼア,福岡県福岡市南区清水1丁目3番8号,"['高宮駅より 徒歩13分', '西鉄バス「清水一丁目」バス停バス停より 徒歩2分']",2015-2,福岡市南区,33.5731797,130.4211359
https://db.self-in.com/mansion/708433.html,アーバンパレス井尻クレア,福岡県福岡市南区井尻4丁目5番18号,['西鉄「井尻六ツ角」バス停より 徒歩1分'],2014-12,福岡市南区,33.5488909,130.4422424
https://db.self-in.com/mansion/708327.html,フリーディア大橋レジデンス,福岡県福岡市南区塩原4丁目7番22号,"['大橋駅より 徒歩9分', '竹下駅より 徒歩12分', '西鉄「塩原四丁目」バス停より 徒歩5分']",2014-11,福岡市南区,33.5614886,130.4324127
https://db.self-in.com/mansion/708186.html,グランフォーレ大橋東,福岡県福岡市南区高木2丁目11番10号,"['大橋駅より 徒歩13分', '西鉄バス「宮竹中学校前」バス停より 徒歩5分']",2014-6,福岡市南区,33.5589186,130.4354372
https://db.self-in.com/mansion/1382702.html,サングレート井尻ロイヤルステーション,福岡県福岡市南区井尻4丁目3番32号,"['井尻駅より 徒歩4分', '笹原駅より 徒歩12分']",2014-3,福岡市南区,33.549973,130.4426182
https://db.self-in.com/mansion/708459.html,アーバンパレス老司テラス,福岡県福岡市南区老司3丁目4番28号,['西鉄「老司小学校」バス停より 徒歩1分'],2014-3,福岡市南区,33.535489,130.4218841
https://db.self-in.com/mansion/1409116.html,クラブエイリック高宮通ファースト,福岡県福岡市南区向野1丁目18番22号,"['高宮駅より 徒歩7分', '大橋駅より 徒歩11分']",2013-9,福岡市南区,33.563091,130.4183691
https://db.self-in.com/mansion/598713.html,サーパス高宮東,福岡県福岡市南区清水3丁目25番21号,"['高宮駅より 徒歩7分', '西鉄バス「清水町」バス停より 徒歩1分', '竹下駅より 徒歩18分']",2013-7,福岡市南区,33.5681318,130.4190414
https://db.self-in.com/mansion/720847.html,ファーネストプレミアムクラス平和,福岡県福岡市南区平和2丁目6番24号,['西鉄平尾駅より 徒歩11分'],2013-7,福岡市南区,33.5695891,130.4004045
https://db.self-in.com/mansion/601257.html,マークスシティ大橋,福岡県福岡市南区大橋団地6番1号,['大橋駅より 徒歩9分'],2013-6,福岡市南区,33.5567078,130.4324898
https://db.self-in.com/mansion/1338309.html,ヒューマインド高宮南,福岡県福岡市南区向野1丁目10番11号,"['大橋駅より 徒歩10分', '高宮駅より 徒歩12分']",2013-5,福岡市南区,33.5637943,130.4198321
https://db.self-in.com/mansion/1630481.html,ウェルグラン姪浜マリナヒルズ,福岡県福岡市西区姪の浜2丁目24番15号,['姪浜駅より 徒歩13分'],2022-9,福岡市西区,33.5904312,130.3296732
https://db.self-in.com/mansion/1414529.html,エイリックスタイル 姪浜駅南IIレジデンシャル,福岡県福岡市西区姪浜駅南2丁目24番31号,['姪浜駅より 徒歩11分'],2022-4,福岡市西区,33.5778931,130.3256114
https://db.self-in.com/mansion/1438161.html,エイリックスタイル姪浜レクリア,福岡県福岡市西区姪の浜6丁目4番1号,['姪浜駅より 徒歩11分'],2022-3,福岡市西区,33.5879652,130.3185934
https://db.self-in.com/mansion/1425811.html,サングレート今宿オーシャンテラス,福岡県福岡市西区今宿1丁目12番,"['今宿駅より 徒歩5分', '（昭和バス）「今宿駅前」バス停より 徒歩5分']",2021-8,福岡市西区,33.5822575,130.2716792
https://db.self-in.com/mansion/1424090.html,ファーネスト姪浜ルシエ,福岡県福岡市西区姪の浜6丁目1番41号,['姪浜駅より 徒歩7分'],2021-7,福岡市西区,33.5880666,130.3225665
https://db.self-in.com/mansion/1424112.html,アクタス上山門ツインズ,福岡県福岡市西区上山門1丁目14番,['下山門駅より 徒歩13分'],2021-7,福岡市西区,33.57332,130.3075065
https://db.self-in.com/mansion/1422912.html,オーヴィジョン姪浜駅北マリナテラス,福岡県福岡市西区姪の浜3丁目29番8号,['姪浜駅より 徒歩12分'],2020-9,福岡市西区,33.5903315,130.326967
https://db.self-in.com/mansion/784030.html,オーヴィジョン姪浜駅南,福岡県福岡市西区姪浜駅南2丁目30番,['姪浜駅より 徒歩11分'],2019-12,福岡市西区,33.5772693,130.3272062
https://db.self-in.com/mansion/1384179.html,サンレジア姪浜駅前,福岡県福岡市西区姪の浜4丁目6番,['姪浜駅より 徒歩3分'],2019-12,福岡市西区,33.5848256,130.3268075
https://db.self-in.com/mansion/784053.html,エイリックスタイル姪浜駅ウエスト,福岡県福岡市西区内浜2丁目10番20号,['姪浜駅より 徒歩9分'],2019-11,福岡市西区,33.5832595,130.3164799
https://db.self-in.com/mansion/1412349.html,サンメゾン姪浜駅南,福岡県福岡市西区姪浜駅南2丁目23番28号,['姪浜駅より 徒歩7分'],2019-8,福岡市西区,33.578459,130.3258506
https://db.self-in.com/mansion/779194.html,MJR姪浜駅南,福岡県福岡市西区姪浜駅南2丁目28番,['姪浜駅より 徒歩12分'],2019-7,福岡市西区,33.5776334,130.3263689
https://db.self-in.com/mansion/777705.html,サンリヤン小戸,福岡県福岡市西区小戸4丁目26番16号,['姪浜駅より 徒歩14分'],2019-3,福岡市西区,33.5833062,130.3132249
https://db.self-in.com/mansion/767994.html,エイルマンション姪浜,福岡県福岡市西区姪の浜3丁目3番26号,"['西鉄バス「姪の浜」バス停より 徒歩2分', '姪浜駅より 徒歩7分']",2018-12,福岡市西区,33.58811,130.3249534
https://db.self-in.com/mansion/766918.html,パークアソシア室見河畔,福岡県福岡市西区福重4丁目13番,"['姪浜駅より 徒歩20分', '西鉄「小田部大橋」バス停より 徒歩4分']",2018-9,福岡市西区,33.5708352,130.3247342
https://db.self-in.com/mansion/765748.html,グランドオーク室見河畔,福岡県福岡市西区愛宕南1丁目7番23号,['室見駅より 徒歩13分'],2018-7,福岡市西区,33.5783663,130.3301079
https://db.self-in.com/mansion/752861.html,モントーレ姪浜ヴィーライン,福岡県福岡市西区姪の浜5丁目7番,['姪浜駅より 徒歩4分'],2017-6,福岡市西区,33.5855075,130.3233785
https://db.self-in.com/mansion/756246.html,サンリヤン橋本,福岡県福岡市西区壱岐団地60番25号,['西鉄バス「大河原」バス停より 徒歩2分'],2017-2,福岡市西区,33.5598034,130.3113353
https://db.self-in.com/mansion/751207.html,サンメゾン九大学研都市エルド,福岡県福岡市西区周船寺3丁目22番18号,['九大学研都市駅より 徒歩10分'],2017-2,福岡市西区,33.5781546,130.2518312
https://db.self-in.com/mansion/752859.html,クラブエイリック姪浜駅南パークレジデンシャル,福岡県福岡市西区姪浜駅南2丁目16番8号,['姪浜駅より 徒歩5分'],2017-2,福岡市西区,33.5796233,130.324794
https://db.self-in.com/mansion/747838.html,MJR九大学研都市レジデンス,福岡県福岡市西区西都1丁目14番,['九大学研都市駅より 徒歩6分'],2017-1,福岡市西区,33.5811358,130.261781
https://db.self-in.com/mansion/752860.html,エイリックスタイル愛宕南ザ・テラス,福岡県福岡市西区愛宕南1丁目8番1号,"['姪浜駅より 徒歩12分', '室見駅より 徒歩12分']",2016-10,福岡市西区,33.5786083,130.3298644
https://db.self-in.com/mansion/749056.html,アルファステイツ姪浜,福岡県福岡市西区小戸4丁目9番,['姪浜駅より 徒歩8分'],2016-8,福岡市西区,33.5857903,130.3194707
https://db.self-in.com/mansion/1632790.html,エイリックスタイル生の松原ウェルクス,福岡県福岡市西区上山門1丁目7番6号,['下山門駅より 徒歩11分'],2016-6,福岡市西区,33.574856,130.3072927
https://db.self-in.com/mansion/708401.html,九大学研都市タワー19,福岡県福岡市西区西都2丁目1番11号,['九大学研都市駅より 徒歩3分'],2016-2,福岡市西区,33.5775518,130.2613802
https://db.self-in.com/mansion/707844.html,ザ・パークハウス愛宕,福岡県福岡市西区愛宕3丁目10番34号,['室見駅より 徒歩7分'],2015-2,福岡市西区,33.5840165,130.3394137
https://db.self-in.com/mansion/707969.html,プレミスト愛宕,福岡県福岡市西区愛宕3丁目11番5号,"['室見駅より 徒歩7分', '西鉄バス「愛宕下」バス停より 徒歩3分']",2015-1,福岡市西区,33.5843,130.3396368
https://db.self-in.com/mansion/989131.html,アーガス・レーヴ姪浜弐番館,福岡県福岡市西区下山門2丁目25番10号,"['下山門駅より 徒歩7分', '姪浜駅より 徒歩20分']",2014-7,福岡市西区,33.5800163,130.3114617
https://db.self-in.com/mansion/708420.html,アーバンパレス愛宕フレス,福岡県福岡市西区愛宕南1丁目5番1号,['室見駅より 徒歩10分'],2014-2,福岡市西区,33.5789801,130.3318292
https://db.self-in.com/mansion/769880.html,アーバンパレス九大学研都市,福岡県福岡市西区北原1丁目10番2号,['九大学研都市駅より 徒歩5分'],2013-10,福岡市西区,33.5789784,130.2557544
https://db.self-in.com/mansion/1313655.html,ヒューマインド姪浜駅前,福岡県福岡市西区姪浜駅南1丁目3番24号,"['姪浜駅より 徒歩2分', '室見駅より 徒歩17分']",2013-3,福岡市西区,33.5828397,130.3265369
https://db.self-in.com/mansion/772650.html,ＭＪＲ九大学研都市,福岡県福岡市西区西都2丁目1番31号,['九大学研都市駅より 徒歩4分'],2013-2,福岡市西区,33.5769994,130.2610261
https://db.self-in.com/mansion/1629674.html,エイリックスタイル 茶山駅グランアベニュー,福岡県福岡市城南区茶山4丁目,['茶山駅より 徒歩5分'],2022-8,福岡市城南区,33.5602401,130.3643547
https://db.self-in.com/mansion/1431697.html,エイルマンション鳥飼,福岡県福岡市城南区鳥飼7丁目25番,"['西新駅より 徒歩11分', '別府駅より 徒歩12分']",2021-11,福岡市城南区,33.5783866,130.3645938
https://db.self-in.com/mansion/1423126.html,サンリヤン別府四丁目,福岡県福岡市城南区別府4丁目12番13号,['別府駅より 徒歩9分'],2021-2,福岡市城南区,33.5743025,130.363239
https://db.self-in.com/mansion/1412379.html,シティハウス鳥飼,福岡県福岡市城南区鳥飼6丁目23番43号,"['別府駅より 徒歩6分', '西新駅より 徒歩14分']",2019-12,福岡市城南区,33.5777523,130.3672658
https://db.self-in.com/mansion/772480.html,アーバンパレス別府パークビュー,福岡県福岡市城南区別府4丁目2番32号,"['別府駅より 徒歩7分', '西鉄バス「中村大学前」バス停より 徒歩3分']",2019-2,福岡市城南区,33.5732385,130.3639399
https://db.self-in.com/mansion/763842.html,ファーネスト別府レジデンス,福岡県福岡市城南区別府1丁目133番1号,['別府駅より 徒歩4分'],2018-8,福岡市城南区,33.5736525,130.3720047
https://db.self-in.com/mansion/765572.html,サンレジア七隈駅前,福岡県福岡市城南区松山1丁目9番15号,['七隈駅より 徒歩4分'],2018-2,福岡市城南区,33.5531154,130.3652703
https://db.self-in.com/mansion/756535.html,アルファステイツ七隈シティガーデン,福岡県福岡市城南区七隈6丁目349番27号,['七隈駅より 徒歩7分'],2017-10,福岡市城南区,33.552012,130.3554284
https://db.self-in.com/mansion/755436.html,デュ・レジア別府,福岡県福岡市城南区別府4丁目187番1号,"['別府駅より 徒歩8分', '西鉄バス「別府四丁目」バス停より 徒歩1分']",2017-10,福岡市城南区,33.5736324,130.3630796
https://db.self-in.com/mansion/751567.html,グランドメゾン鳥飼テラス,福岡県福岡市城南区鳥飼5丁目14番14号,['六本松駅より 徒歩7分'],2016-12,福岡市城南区,33.5781531,130.3726222
https://db.self-in.com/mansion/743647.html,ウエリス城南別府,福岡県福岡市城南区別府4丁目3番18号,"['別府駅より 徒歩8分', '西鉄「別府四丁目」バス停より 徒歩3分']",2016-2,福岡市城南区,33.5731878,130.3632255
https://db.self-in.com/mansion/707905.html,ブライト・サンリヤン鳥飼6丁目１,福岡県福岡市城南区鳥飼6丁目16番13号,['別府駅より 徒歩6分'],2014-8,福岡市城南区,33.5781102,130.3689772
https://db.self-in.com/mansion/707906.html,ブライト・サンリヤン鳥飼6丁目２,福岡県福岡市城南区鳥飼6丁目15番37号,['別府駅より 徒歩5分'],2014-8,福岡市城南区,33.5782154,130.3700894
https://db.self-in.com/mansion/1380898.html,ハートリーフ友泉亭,福岡県福岡市城南区友泉亭1番15号,"['茶山駅より 徒歩20分', '六本松駅より バス8分']",2014-6,福岡市城南区,33.5616609,130.3766096
https://db.self-in.com/mansion/708011.html,アクロス西新レジデンス,福岡県福岡市城南区荒江1丁目30番16号,['西鉄バス「荒江」バス停バス停より 徒歩1分'],2014-3,福岡市城南区,33.5727061,130.3578616
https://db.self-in.com/mansion/718611.html,サンレジア南片江,福岡県福岡市城南区南片江6丁目15番5号,['福大前駅より 徒歩14分'],2013-9,福岡市城南区,33.5429747,130.3710682
https://db.self-in.com/mansion/784958.html,ヒューマインド茶山駅前,福岡県福岡市城南区茶山1丁目9番40号,['茶山駅より 徒歩2分'],2013-3,福岡市城南区,33.5667416,130.3641907
https://db.self-in.com/mansion/1418050.html,モントーレ室見ステーションスクエア,福岡県福岡市早良区室見1丁目4番5号,['室見駅より 徒歩1分'],2022-11,福岡市早良区,33.580997,130.3408961
https://db.self-in.com/mansion/1444263.html,フリーディア室見レジデンス,福岡県福岡市早良区南庄1丁目80番,['室見駅より 徒歩12分'],2022-9,福岡市早良区,33.5739961,130.3404421
https://db.self-in.com/mansion/1444255.html,エイリックスタイル 藤崎南コートプレイス,福岡県福岡市早良区荒江3丁目1番7号,"['藤崎駅より 徒歩17分', '西鉄バス「昭代2丁目」バス停より 徒歩3分']",2022-6,福岡市早良区,33.5737617,130.353762
https://db.self-in.com/mansion/1412737.html,フリーディア西新プレミアム,福岡県福岡市早良区西新6丁目10番8号,['西新駅より 徒歩8分'],2022-5,福岡市早良区,33.5877388,130.3553288
https://db.self-in.com/mansion/1412750.html,グランドパレス百道,福岡県福岡市早良区百道3丁目5番,['西鉄バス「百道」バス停より 徒歩2分'],2022-5,福岡市早良区,33.5860069,130.3473777
https://db.self-in.com/mansion/1440243.html,ファーネスト原ルシエ,福岡県福岡市早良区原5丁目9番20号,['西鉄バス「原往還」バス停より 徒歩2分'],2022-4,福岡市早良区,33.5648569,130.3399238
https://db.self-in.com/mansion/1420318.html,DOOP飯倉の杜,福岡県福岡市早良区飯倉6丁目20番17号,"['金山駅より 徒歩13分', '七隈駅より 徒歩18分', '西鉄バス「唐木」バス停より 徒歩3分']",2022-2,福岡市早良区,33.5591043,130.3537347
https://db.self-in.com/mansion/1433423.html,ライオンズミレス西新,福岡県福岡市早良区城西3丁目19番2号,['西新駅より 徒歩4分'],2021-12,福岡市早良区,33.581364,130.3607485
https://db.self-in.com/mansion/1431698.html,セレンシオ高取二丁目,福岡県福岡市早良区高取2丁目9番,['藤崎駅より 徒歩6分'],2021-11,福岡市早良区,33.5774942,130.3498488
https://db.self-in.com/mansion/1431701.html,ザ・パークハウス藤崎紅葉山,福岡県福岡市早良区昭代3丁目4番,['藤崎駅より 徒歩9分'],2021-11,福岡市早良区,33.576577,130.3514431
https://db.self-in.com/mansion/1431704.html,グランフォーレ西新パサージュ,福岡県福岡市早良区高取1丁目2番,"['藤崎駅より 徒歩6分', '西新駅より 徒歩7分']",2021-11,福岡市早良区,33.5813127,130.3537546
https://db.self-in.com/mansion/1424091.html,デュオヴェール西新,福岡県福岡市早良区祖原14番,['西新駅より 徒歩5分'],2021-7,福岡市早良区,,
https://db.self-in.com/mansion/1423381.html,フリーディア高取プレミアム,福岡県福岡市早良区昭代2丁目42番,['藤崎駅より 徒歩9分'],2021-6,福岡市早良区,33.5771277,130.3541531
https://db.self-in.com/mansion/1423328.html,フリーディア室見サザンテラス,福岡県福岡市早良区小田部7丁目14番20号,"['姪浜駅より 徒歩20分', '室見駅より 徒歩20分', '西鉄「原北中学校前」バス停より 徒歩2分']",2021-5,福岡市早良区,33.5715004,130.3307148
https://db.self-in.com/mansion/1423261.html,アルテマインド昭代,福岡県福岡市早良区昭代3丁目168番,"['藤崎駅より 徒歩9分', '昭代三丁目バス停より 徒歩2分']",2021-3,福岡市早良区,33.5762813,130.3503271
https://db.self-in.com/mansion/1412317.html,ブリリアタワー西新,福岡県福岡市早良区西新4丁目1番,['西新駅より 徒歩1分'],2021-1,福岡市早良区,33.5836503,130.3601308
https://db.self-in.com/mansion/1423035.html,ラアトレレジデンス室見公園,福岡県福岡市早良区室見1丁目,"['室見駅より 徒歩4分', '西鉄「室見一丁目」バス停より 徒歩3分']",2020-12,福岡市早良区,33.5827932,130.3426743
https://db.self-in.com/mansion/1422956.html,グランフォーレ百道アクアフロント,福岡県福岡市早良区百道3丁目16番12号,"['藤崎駅より 徒歩10分', '室見駅より 徒歩11分']",2020-10,福岡市早良区,33.5869991,130.3444414
https://db.self-in.com/mansion/1385833.html,アルファステイツ飯倉,福岡県福岡市早良区飯倉3丁目20番16号,"['藤崎駅より 徒歩21分', '茶山駅より 徒歩23分', '別府駅より 徒歩24分', '西鉄バス「原農協前」バス停より 徒歩2分']",2020-8,福岡市早良区,33.5670704,130.3499485
https://db.self-in.com/mansion/1385775.html,ファーネスト原通りレジデンス,福岡県福岡市早良区原5丁目15番15号,['西鉄バス「有田」バス停より 徒歩2分'],2020-7,福岡市早良区,33.5626984,130.338559
https://db.self-in.com/mansion/1412385.html,ザ・パークハウス百道,福岡県福岡市早良区百道2丁目6番,['藤崎駅より 徒歩3分'],2020-3,福岡市早良区,33.5826765,130.3463414
https://db.self-in.com/mansion/1412448.html,パークアソシア原テラス,福岡県福岡市早良区原6丁目9番17号,['西鉄バス「原」バス停より 徒歩8分'],2020-3,福岡市早良区,33.5635893,130.3461454
https://db.self-in.com/mansion/1412468.html,サンメゾン西新,福岡県福岡市早良区曙1丁目4番15号,['西新駅より 徒歩11分'],2020-2,福岡市早良区,33.576403,130.3611099
https://db.self-in.com/mansion/780214.html,アルファステイツ原２,福岡県福岡市早良区原2丁目13番25号,"['藤崎駅より 徒歩21分', '西鉄バス「原二丁目」バス停より 徒歩2分']",2019-11,福岡市早良区,33.5688878,130.3464524
https://db.self-in.com/mansion/1412451.html,エフグラン室見,福岡県福岡市早良区室見2丁目4番,['藤崎駅より 徒歩5分'],2019-9,福岡市早良区,33.5790299,130.3444282
https://db.self-in.com/mansion/1389977.html,ミッドレジデ室見,福岡県福岡市早良区室見5丁目5番20号,['室見駅より 徒歩5分'],2019-9,福岡市早良区,33.578271,130.3381525
https://db.self-in.com/mansion/1412390.html,フリーディア藤崎レジデンス,福岡県福岡市早良区藤崎1丁目5番,['藤崎駅より 徒歩4分'],2019-6,福岡市早良区,33.579247,130.3476169
https://db.self-in.com/mansion/779108.html,ファーネスト西新レジデンス,福岡県福岡市早良区城西2丁目6番7号,"['西新駅より 徒歩10分', '別府駅より 徒歩13分', '西鉄「城西橋」バス停より 徒歩5分']",2019-4,福岡市早良区,33.5784201,130.3626811
https://db.self-in.com/mansion/784981.html,サンレジア室見河畔,福岡県福岡市早良区南庄6丁目19番,['室見駅より 徒歩9分'],2019-2,福岡市早良区,33.5772259,130.3346219
https://db.self-in.com/mansion/771269.html,グランド・サンリヤン高取一丁目,福岡県福岡市早良区高取1丁目28番30号,"['藤崎駅より 徒歩3分', '西新駅より 徒歩10分']",2018-12,福岡市早良区,33.5811761,130.351429
https://db.self-in.com/mansion/767977.html,グランドパレス藤崎,福岡県福岡市早良区藤崎1丁目5番28号,['藤崎駅より 徒歩5分'],2018-10,福岡市早良区,33.5794992,130.3474009
https://db.self-in.com/mansion/769582.html,アクセス藤崎南,福岡県福岡市早良区原3丁目6番5号,"['藤崎駅より 徒歩19分', '西鉄「原団地」バス停より 徒歩4分']",2018-9,福岡市早良区,33.5705278,130.3431395
https://db.self-in.com/mansion/766799.html,アルファライフ野芥駅,福岡県福岡市早良区賀茂2丁目147番3号,"['野芥駅より 徒歩6分', '賀茂駅より 徒歩7分', '「野芥二丁目」バス停より 徒歩3分']",2018-9,福岡市早良区,33.5499681,130.3426743
https://db.self-in.com/mansion/768013.html,パークホームズ西新トラッドマークス,福岡県福岡市早良区西新2丁目5番2号,"['西新駅より 徒歩3分', '唐人町駅より 徒歩13分']",2018-7,福岡市早良区,33.5852581,130.3616125
https://db.self-in.com/mansion/773918.html,アンピール西新祖原公園,福岡県福岡市早良区祖原8番3号,"['西新駅より 徒歩9分', '藤崎駅より 徒歩17分', '西鉄バス「祖原」バス停より 徒歩3分']",2018-7,福岡市早良区,33.5782427,130.3581749
https://db.self-in.com/mansion/758923.html,アクロス西新サウスレジオン,福岡県福岡市早良区荒江2丁目8番15号,"['別府駅より 徒歩17分', '茶山駅より 徒歩19分', '西鉄「荒江四角」バス停より 徒歩1分']",2018-7,福岡市早良区,33.5714838,130.3569231
https://db.self-in.com/mansion/1442007.html,グランフォーレ西新ヒルズ,福岡県福岡市早良区昭代1丁目20番34号,"['西新駅より 徒歩13分', '藤崎駅より 徒歩13分']",2018-5,福岡市早良区,33.5765765,130.3556078
https://db.self-in.com/mansion/1412246.html,ネクサス西新二丁目,福岡県福岡市早良区西新2丁目1番33号,['西新駅より 徒歩6分'],2018-3,福岡市早良区,33.5871376,130.3612668
https://db.self-in.com/mansion/766838.html,シティハウス室見ステーションコート,福岡県福岡市早良区室見1丁目4番1号,['室見駅より 徒歩1分'],2018-2,福岡市早良区,33.5808845,130.3413405
https://db.self-in.com/mansion/757816.html,グランフォーレ藤崎レジデンス,福岡県福岡市早良区荒江3丁目36番1号,['藤崎駅より 徒歩12分'],2017-8,福岡市早良区,33.5742212,130.3513985
https://db.self-in.com/mansion/761430.html,リッシュハウス飯倉アマルフィ,福岡県福岡市早良区飯倉8丁目2番3号,['西鉄バス「原八丁目」バス停より 徒歩7分'],2017-8,福岡市早良区,33.5605511,130.3464809
https://db.self-in.com/mansion/775021.html,パレスト・リッツガーデン百道,福岡県福岡市早良区西新7丁目8番11号,"['藤崎駅より 徒歩9分', '西新駅より 徒歩11分', '博物館南口バス停より 徒歩6分']",2017-5,福岡市早良区,33.5862054,130.3521579
https://db.self-in.com/mansion/765549.html,グランフォーレ西新レジデンス,福岡県福岡市早良区西新2丁目4番40号,['西新駅より 徒歩4分'],2017-3,福岡市早良区,33.5859978,130.3611245
https://db.self-in.com/mansion/768129.html,クリオ室見,福岡県福岡市早良区南庄4丁目7番20号,['室見駅より 徒歩14分'],2017-3,福岡市早良区,33.5734979,130.3343031
https://db.self-in.com/mansion/751483.html,グランドメゾン西新フォレスト,福岡県福岡市早良区城西2丁目5番30号,['西新駅より 徒歩9分'],2017-1,福岡市早良区,33.57852099999999,130.3632105
https://db.self-in.com/mansion/751000.html,アルファステイツ原,福岡県福岡市早良区原6丁目29番40号,"['西鉄バス「原往還」バス停より 徒歩3分', '次郎丸駅より 徒歩23分']",2017-1,福岡市早良区,33.5634265,130.3413298
https://db.self-in.com/mansion/765550.html,シティハウス西新ステーションコート,福岡県福岡市早良区西新5丁目2番14号,['西新駅より 徒歩4分'],2016-12,福岡市早良区,33.5815421,130.3579391
https://db.self-in.com/mansion/750990.html,ザ・パークハウス 西新二丁目,福岡県福岡市早良区西新2丁目21番42号,['西新駅より 徒歩8分'],2016-12,福岡市早良区,33.5879452,130.3594978
https://db.self-in.com/mansion/751206.html,サンメゾン次郎丸エルド,福岡県福岡市早良区次郎丸6丁目5番57号,['賀茂駅より 徒歩8分'],2016-11,福岡市早良区,33.5482954,130.3337672
https://db.self-in.com/mansion/753013.html,エ・メゾン百道,福岡県福岡市早良区百道1丁目16番10号,['藤崎駅より 徒歩7分'],2016-8,福岡市早良区,33.5850408,130.3495389
https://db.self-in.com/mansion/768914.html,ファーネストプレミアムクラス高取,福岡県福岡市早良区祖原20番19号,['西新駅より 徒歩8分'],2016-8,福岡市早良区,33.5794665,130.3558629
https://db.self-in.com/mansion/750576.html,グランドメゾン高取レジデンス弐番館,福岡県福岡市早良区高取1丁目4番8号,['藤崎駅より 徒歩5分'],2016-7,福岡市早良区,33.5808082,130.3527981
https://db.self-in.com/mansion/746923.html,フリーディア高取レジデンス,福岡県福岡市早良区昭代2丁目4番,['西新駅より 徒歩10分'],2016-6,福岡市早良区,33.5783228,130.3550299
https://db.self-in.com/mansion/707918.html,グランドメゾン百道プレイス,福岡県福岡市早良区百道2丁目9番6号,['藤崎駅より 徒歩3分'],2016-2,福岡市早良区,33.5813186,130.3454296
https://db.self-in.com/mansion/745048.html,グランフォーレ荒江サウステラス,福岡県福岡市早良区飯倉2丁目28番35号,"['西鉄バス「原農協前」バス停より 徒歩2分', '藤崎駅より 徒歩23分']",2015-12,福岡市早良区,33.567795,130.3516451
https://db.self-in.com/mansion/709297.html,グランフォーレ荒江レジデンス,福岡県福岡市早良区荒江3丁目15番2号,"['西鉄バス「福陵町」バス停より 徒歩2分', '藤崎駅より 徒歩21分']",2015-12,福岡市早良区,33.5691313,130.3522053
https://db.self-in.com/mansion/709075.html,アルファステイツ室見サウス2,福岡県福岡市早良区小田部7丁目5番1号,"['室見駅より 徒歩16分', '原北中学校前バス停より 徒歩3分']",2015-8,福岡市早良区,33.5727771,130.3326025
https://db.self-in.com/mansion/708817.html,グランドメゾン高取レジデンス,福岡県福岡市早良区高取1丁目4番15号,['藤崎駅より 徒歩5分'],2015-7,福岡市早良区,33.580736,130.3525224
https://db.self-in.com/mansion/1351536.html,BRUNO,福岡県福岡市早良区南庄6丁目6番7号,"['室見駅より 徒歩7分', '藤崎駅より 徒歩15分']",2015-6,福岡市早良区,33.5775689,130.3372763
https://db.self-in.com/mansion/708008.html,アクロス荒江グランコート,福岡県福岡市早良区飯倉2丁目28番23号,"['西鉄バス「原農協前」バス停バス停より 徒歩3分', '別府駅より 徒歩24分']",2015-5,福岡市早良区,33.5669333,130.3516623
https://db.self-in.com/mansion/747159.html,レジデンス百道,福岡県福岡市早良区百道2丁目4番41号,['藤崎駅より 徒歩2分'],2015-3,福岡市早良区,33.5831045,130.346909
https://db.self-in.com/mansion/708639.html,アーバンパレスクロド高取,福岡県福岡市早良区高取1丁目27番26号,['藤崎駅より 徒歩3分'],2015-2,福岡市早良区,33.5805998,130.3512889
https://db.self-in.com/mansion/708185.html,グランフォーレ藤崎南レジデンス,福岡県福岡市早良区原2丁目11番25号,"['西鉄バス「原団地」バス停バス停より 徒歩2分', '藤崎駅より 徒歩17分']",2015-1,福岡市早良区,33.5704172,130.3463015
https://db.self-in.com/mansion/1381850.html,サンメゾン西新エルド,福岡県福岡市早良区昭代1丁目20番21号,"['藤崎駅より 徒歩13分', '西新駅より 徒歩14分', '別府駅より 徒歩19分']",2015-1,福岡市早良区,33.5762352,130.3558714
https://db.self-in.com/mansion/767159.html,エイルマンションアクティス原,福岡県福岡市早良区飯倉3丁目46番20号,"['西鉄バス 原バス停より 徒歩7分', '金山駅より 徒歩25分']",2014-9,福岡市早良区,33.5636778,130.3468594
https://db.self-in.com/mansion/708010.html,アクロス原ブルームテラス,福岡県福岡市早良区原4丁目13番4号,"['西鉄バス「原4丁目」バス停バス停より 徒歩4分', '藤崎駅より バス11分']",2014-7,福岡市早良区,33.5697152,130.3401328
https://db.self-in.com/mansion/995798.html,MJR西新テラス,福岡県福岡市早良区城西2丁目11番10号,"['西新駅より 徒歩7分', '別府駅より 徒歩15分']",2014-7,福岡市早良区,33.5804889,130.3623948
https://db.self-in.com/mansion/707864.html,レジデンス西新パークサイド,福岡県福岡市早良区祖原25番2号,['西新駅より 徒歩10分'],2014-2,福岡市早良区,33.5775566,130.3570932
https://db.self-in.com/mansion/714930.html,グランドメゾン西新テラス,福岡県福岡市早良区城西1丁目5番11号,"['西新駅より 徒歩6分', '西鉄バス「城西橋」バス停より 徒歩2分']",2014-2,福岡市早良区,33.5822438,130.3636326
https://db.self-in.com/mansion/781807.html,ネストピア西新２,福岡県福岡市早良区西新1丁目11番19号,['西新駅より 徒歩1分'],2013-10,福岡市早良区,33.5833337,130.3612665
https://db.self-in.com/mansion/1426528.html,プレミスト西新クロノ,福岡県福岡市早良区西新5丁目15番50号,"['西新駅より 徒歩5分', '藤崎駅より 徒歩7分', '室見駅より 徒歩19分']",2013-9,福岡市早良区,33.5824147,130.3551495
https://db.self-in.com/mansion/995556.html,グランドオーク西新レジデンス,福岡県福岡市早良区城西3丁目2番20号,"['西新駅より 徒歩5分', '別府駅より 徒歩17分']",2013-9,福岡市早良区,33.5803375,130.361051
https://db.self-in.com/mansion/1630179.html,ネクサス室見,福岡県福岡市早良区室見1丁目3番4号,"['室見駅より 徒歩2分', '藤崎駅より 徒歩7分', '西新駅より 徒歩20分']",2013-6,福岡市早良区,33.5808913,130.3419404
https://db.self-in.com/mansion/996086.html,クラブエイリック藤崎南ザテラス,福岡県福岡市早良区原1丁目2番26号,"['藤崎駅より 徒歩16分', '西新駅より 徒歩25分']",2013-5,福岡市早良区,33.5738762,130.3494147
https://db.self-in.com/mansion/1631714.html,ラプロス飯倉,福岡県福岡市早良区飯倉5丁目21番13号,"['金山駅より 徒歩13分', '飯倉バス停より 徒歩4分', '西新駅より バス14分']",2013-4,福岡市早良区,33.5601657,130.3536554
https://db.self-in.com/mansion/715100.html,ネストピア西新,福岡県福岡市早良区西新1丁目11番28号,['西新駅より 徒歩3分'],2013-3,福岡市早良区,33.5835477,130.3614083
